,Unnamed: 0,Location,Facility Name,Facility Address,Operator Name,Operator Type,DSL-3,DSL-4,DSL-4-Dementia,LTC-Auxilary Hospital,LTC-Nursing Home,facility_name,index,source_facility_type,odhf_facility_type,provider,street_no,street_name,postal_code,city,province,source_format_str_address,CSDname,latitude,longitude,outbreak_status,geo_lat,geo_lon,lat_error,lon_error
6,7,Bassano,Bassano Health Centre,"608 5 Avenue BASSANO, Alberta T0J 0B0",Alberta Health Services,Alberta Health Services,False,False,False,True,False,bassano health centre,21.0,general,Hospitals,Public Health Agency of Canada,608.0,5 ave,T0J0B0,bassano,ab,608 - 5th ave. bassano ab t0j 0b0,Bassano,50.7892616,-112.461057,0,51.293003000000006,-114.036075,0.5037414000000027,1.575018
7,8,Bentley,Bentley Care Centre,"4834 52 Avenue BENTLEY, Alberta T0C 0J0",Alberta Health Services,Alberta Health Services,False,False,False,True,False,bentley care centre,23.0,extended care,Hospitals,Public Health Agency of Canada,4834.0,52 ave,T0C0J0,bentley,ab,4834 - 52nd ave. bentley ab t0c 0j0,Bentley,52.467744,-114.04616,0,50.789379,-112.46122,1.6783650000000065,1.5849400000000031
16,17,Oyen,Big Country Hospital,312 3 Avenue East OYEN Alberta T0J2J0,Alberta Health  Services,Alberta Health Services,False,False,False,True,False,big country hospital,32.0,,Hospitals,Province of Alberta,312.0,3 avenue e,T0J2J0,oyen,ab,"312 3rd avenue e., oyen, alberta, t0j 2j0",Oyen,51.351585,-110.478813,0,50.907315000000004,-114.058393,0.44426999999999595,3.579579999999993
17,18,Bonnyville,Bonnyville Healthcare Centre,"5001 Lakeshore Drive BONNYVILLE, Alberta T9N 2J7",Covenant Health,Voluntary,False,False,False,True,False,bonnyville healthcare centre,35.0,,Ambulatory health care services,Province of Alberta,5001.0,lakeshore drive,T9N2J7,bonnyville,ab,"5001 lakeshore drive, bonnyville, alberta, t9n 2j7",Bonnyville,54.26373,-110.7393,0,51.645728000000005,-111.919789,2.618001999999997,1.1804889999999943
19,21,Bow Island,Bow Island Health Centre,"938 Centre Street,   PO Bag 3990 BOW ISLAND, Alberta T0K 0G0",Alberta Health Services,Alberta Health Services,False,False,False,True,False,bow island health centre,36.0,general,Hospitals,Public Health Agency of Canada,938.0,centre st,T0K0G0,bow island,ab,938 centre st. bow island ab t0k 0g0,Bow Island,49.8655484,-111.3793987,0,54.26166,-110.737417,4.396111599999998,0.6419817000000023
20,22,Breton,Breton Health Centre,"4919 49 Avenue BRETON, Alberta T0C 0P0",Alberta Health Services,Alberta Health Services,False,False,False,True,False,breton health centre,40.0,extended care,Hospitals,Public Health Agency of Canada,4919.0,49 ave,T0C0P0,breton,ab,4919 - 49 ave. breton ab t0c 0p0,Breton,53.1092291,-114.4712943,0,51.081934999999994,-114.17346200000001,2.027294100000006,0.29783229999998184
22,24,Canmore,Canmore General Hospital [Golden Eagle View LTC],"1100 Hospital Place CANMORE, Alberta T1W 1N2",Alberta Health Services,Alberta Health Services,False,False,False,True,False,canmore general hospital,44.0,general,Hospitals,Public Health Agency of Canada,1100.0,hospital place,T1W1N2,canmore,ab,1100 hospital place canmore ab t1w 1n2,Canmore,51.09301,-115.350651,0,52.463929,-114.04802,1.3709190000000007,1.3026310000000052
28,30,Cardston,Cardston Health Centre,"144 2 Street West PO Box 1440 CARDSTON, Alberta T0K 0K0",Alberta Health Services,Alberta Health Services,False,False,False,True,False,cardston health centre,51.0,general,Hospitals,Public Health Agency of Canada,144.0,2 st w,T0K0K0,cardston,ab,144 - 2nd st. w. cardston ab t0k 0k0,Cardston,49.201947,-113.305761,0,53.559979000000006,-113.49831699999999,4.358032000000009,0.19255599999998196
36,38,Spirit River,Central Peace Health Complex,"5010 45 Avenue SPIRIT RIVER, Alberta T0H 3G0",Alberta Health Services,Alberta Health Services,False,False,False,True,False,central peace health complex,63.0,general,Hospitals,Public Health Agency of Canada,5010.0,45 ave,T0H3G0,spirit river,ab,5010 - 45 ave. spirit river ab t0h 3g0,Spirit River,55.776981000000006,-118.838754,0,50.9899,-114.1574,4.787081000000008,4.681353999999999
41,43,Coaldale,Coaldale Health Centre,"2100 11 Street COALDALE, Alberta T1M 1L2",Alberta Health Services,Alberta Health Services,False,False,False,True,False,coaldale health centre,69.0,general,Hospitals,Public Health Agency of Canada,2100.0,11 st,T1M1L2,coaldale,ab,2100 - 11 st. coaldale ab t1m 1l2,Coaldale,49.725825,-112.607294,0,51.045322999999996,-113.966943,1.3194979999999958,1.3596490000000045
42,44,Cold Lake,Cold Lake Healthcare Centre,"314 25 Street COLD LAKE, Alberta T9M 1G6",Alberta Health  Services,Alberta Health Services,False,False,False,True,False,cold lake healthcare centre,71.0,general,Hospitals,Public Health Agency of Canada,314.0,25 st,T9M1G6,cold lake,ab,314 - 25th st. cold lake ab t9m 1g6,Cold Lake,54.4658735,-110.199018,0,50.045702,-110.716376,4.420171500000002,0.5173580000000015
43,45,Consort,Consort Hospital And Care Centre,"5402 52 Avenue CONSORT, Alberta T0C 1B0",Alberta Health Services,Alberta Health Services,False,False,False,True,False,consort hospital and care centre,73.0,,Hospitals,Province of Alberta,5402.0,52 avenue,T0C1B0,consort,ab,"5402 ñ 52 avenue, consort, alberta, t0c 1b0",Consort,52.01200479999999,-110.7717888,0,49.726154,-112.606454,2.2858507999999915,1.8346652000000034
44,46,Coronation,Coronation Hospital And Care Centre,"5000 Municipal Road CORONATION, Alberta T0C 1C0",Alberta Health Services,Alberta Health Services,True,False,False,True,False,coronation hospital and care centre,75.0,,Hospitals,Province of Alberta,5000.0,municipal road,T0C1C0,coronation,ab,"5000 municipal road, coronation, alberta, t0c 1c0",Coronation,52.0964213,-111.4597738,0,54.463781999999995,-110.20296100000002,2.367360699999992,1.2568127999999774
45,47,Blairmore,Crowsnest Pass Health Centre,"2001 107 Street BLAIRMORE, Alberta T0K 0E0",Alberta Health Services,Alberta Health Services,False,False,False,True,True,crowsnest pass health centre,96.0,general,Hospitals,Public Health Agency of Canada,2001.0,107 st,T0K0E0,blairmore,ab,2001 - 107 st. blairmore ab t0k 0e0,Crowsnest Pass,49.6131739,-114.4736247,0,52.010335,-110.78096200000002,2.397161099999998,3.6926626999999854
46,48,Devon,Devon General Hospital,"101 Erie Street South DEVON, Alberta T9G 1A6",Alberta Health Services,Alberta Health Services,False,False,False,True,False,devon general hospital,100.0,general,Hospitals,Public Health Agency of Canada,101.0,erie st s,T9G1A6,devon,ab,101 erie st. s. devon ab t9g 1a6,Devon,53.35149300000001,-113.730785,0,52.092954999999996,-111.449,1.2585380000000157,2.2817849999999993
48,50,Didsbury,Didsbury District Health Services,"1210 20 Avenue DIDSBURY, Alberta T0M 0W0",Alberta Health Services,Alberta Health Services,False,False,False,True,False,didsbury district health services,101.0,general,Hospitals,Public Health Agency of Canada,1210.0,20 ave,T0M0W0,didsbury,ab,1210 - 20th ave. didsbury ab t0m 0w0,Didsbury,51.661795,-114.123674,0,53.35560699999999,-113.72908999999999,1.693811999999994,0.3945840000000089
49,51,Lloydminster,Dr. Cooke Extended Care Centre,"3915 56 Avenue LLOYDMINSTER, Alberta T9V 1N9",Prairie North Regional Health Authority,RHA,False,False,False,True,False,dr. cooke extended care centre,103.0,,Nursing and residential care facilities,Saskatchewan Health Authorities,3915.0,56 avenue,T9V1N9,lloydminster,ab,"3915 ñ 56 avenue lloydminster, ab t9v 1n9",Lloydminster (Part),53.273049,-110.019164,0,53.4567,-113.5801,0.18365099999999757,3.560935999999998
51,53,Drayton Valley,Drayton Valley Hospital And Care Centre,"4550 Madsen Avenue DRAYTON VALLEY, Alberta T7A 1N8",Alberta Health Services,Alberta Health Services,False,False,False,True,True,drayton valley hospital and care centre,106.0,general,Hospitals,Public Health Agency of Canada,4550.0,madsen ave,T7A1N8,drayton valley,ab,4550 madsen ave. drayton valley ab t7a 1n8,Drayton Valley,53.211841,-114.969193,0,53.279837,-110.02141100000001,0.06799600000000083,4.9477819999999895
52,54,Drumheller,Drumheller Health Centre,"351 9 Street NW DRUMHELLER, Alberta T0J 0Y1",Alberta Health Services,Alberta Health Services,False,False,False,True,False,drumheller health centre,108.0,general,Hospitals,Public Health Agency of Canada,351.0,9 st nw,T0J0Y1,drumheller,ab,351 - 9th st. n.w. drumheller ab t0j 0y1,Drumheller,51.4698073,-112.7259344,0,54.128793,-114.40643600000001,2.6589857000000023,1.6805016000000137
55,57,Elk Point,Elk Point Healthcare Centre,"5310 50 Avenue ELK POINT, Alberta T0A 1A0",Alberta Health Services,Alberta Health Services,False,False,False,True,False,elk point healthcare centre,112.0,general,Hospitals,Public Health Agency of Canada,5310.0,50 ave,T0A1A0,elk point,ab,5310 - 50 ave. elk point ab t0a 1a0,Elk Point,53.8969745,-110.9058049,0,49.694005,-112.825877,4.202969500000002,1.9200720999999987
66,68,St Paul,Extendicare St. Paul,"4614 47 Avenue ST. PAUL, Alberta T0A 3A3",Extendicare (Canada) Inc.,Private,False,False,False,False,True,extendicare st. paul,270.0,general,Hospitals,Public Health Agency of Canada,4713.0,48 ave,T0A3A3,st paul,ab,4713 - 48th ave. st. paul ab t0a 3a3,St. Paul,53.9888438,-111.2904497,0,53.891358,-114.91475700000001,0.09748580000000118,3.6243073000000123
69,71,Fairview,Fairview Health Complex [Continuing Care Centre],"10628 110 Street FAIRVIEW, Alberta T0H 1L0",Alberta Health Services,Alberta Health Services,False,False,False,True,False,fairview health complex,127.0,general,Hospitals,Public Health Agency of Canada,10628.0,110 st,T0H1L0,fairview,ab,10628 - 110 st. fairview ab t0h 1l0,Fairview,56.0709656,-118.3845521,0,52.86735,-112.269989,3.203615599999999,6.114563099999998
75,77,Smoky Lake,George McDougall - Smoky Lake Healthcare Centre,"4212 55 Avenue SMOKY LAKE, Alberta T0A 3C0",Alberta Health Services,Alberta Health Services,False,False,False,True,False,george mcdougall - smoky lake healthcare centre,138.0,,Ambulatory health care services,Province of Alberta,4212.0,55 avenue,T0A3C0,smoky lake,ab,"4212 - 55 avenue, smoky lake, alberta, t0a 3c0",Smoky Lake,54.12128065,-112.4652356,0,53.559858,-114.46826200000001,0.5614226500000044,2.00302640000001
77,79,Edmonton,Good Samaritan Dr. Gerald Zetter Care Centre,"9649 71 Avenue NW EDMONTON, Alberta T6E 5J2",The Good Samaritan Society (A Lutheran Social Service Organization),Voluntary,False,False,False,True,False,good samaritan society dr. gerald zetter care centre,292.0,chronic care,Nursing and residential care facilities,Public Health Agency of Canada,9649.0,71 ave,T6E5J2,edmonton,ab,9649 - 71st ave. edmonton ab t6e 5j2,Edmonton,53.5072809,-113.477577,0,54.119873,-112.46396299999999,0.6125921000000005,1.013614000000004
83,85,Grimshaw,Grimshaw/Berwyn And District Community Health Centre,"5621 Wilcox Road GRIMSHAW, Alberta T0H 1W0",Alberta Health Services,Alberta Health Services,False,False,False,True,False,grimshaw/berwyn and district community health centre,145.0,,Ambulatory health care services,Province of Alberta,5621.0,wilcox road,T0H1W0,grimshaw,ab,"5621 wilcox road, grimshaw, alberta, t0h 1w0",Grimshaw,56.190432,-117.62721299999998,0,55.164761999999996,-118.786189,1.0256700000000052,1.1589760000000098
84,86,Hanna,Hanna Health Centre,"904 Centre Street N, Box 830 HANNA, Alberta T0J 1P0",Alberta Health Services,Alberta Health Services,False,False,False,False,True,hanna health centre,150.0,general,Hospitals,Public Health Agency of Canada,904.0,centre st n,T0J1P0,hanna,ab,904 centre st. n. hanna ab t0j 1p0,Hanna,51.6489192,-111.9282036,0,55.164761999999996,-118.786189,3.5158427999999944,6.85798539999999
86,88,Hardisty,Hardisty Health Centre,"4531 47 Avenue, Box 269 HARDISTY, Alberta T0B1V0",Alberta Health Services,Alberta Health Services,False,False,False,True,False,hardisty health centre,151.0,general,Hospitals,Public Health Agency of Canada,4531.0,47 st,T0B1V0,hardisty,ab,4531 - 47 st. hardisty ab t0b 1v0,Hardisty,52.669316,111.307616,0,51.649066,-111.92816,1.0202500000000043,223.235776
87,89,High River,High River General Hospital,"560 9 Avenue SW HIGH RIVER, Alberta T1V 1B3",Alberta Health Services,Alberta Health Services,False,False,False,True,False,high river general hospital,155.0,general,Hospitals,Public Health Agency of Canada,560.0,9 ave w,T1V1B3,high river,ab,560 - 9th ave. w. high river ab t1v 1b3,High River,50.5751035,-113.87994779999998,0,53.541825,-113.430504,2.9667215000000056,0.4494437999999832
89,91,Innisfail,Innisfail Health Centre,"5023 42 Street INNISFAIL, Alberta T4G 1A9",Alberta Health Services,Alberta Health Services,False,False,False,True,False,innisfail health centre,160.0,general,Hospitals,Public Health Agency of Canada,5023.0,42 st,T4G1A9,innisfail,ab,5023 - 42nd st. innisfail ab t4g 1a9,Innisfail,52.019015,-113.9514399,0,50.575086,-113.877894,1.4439290000000042,0.07354589999999916
97,99,Killam,Killam Health Care Centre,"5203 49 Avenue, Box 40 KILLAM, Alberta T0B 2L0",Covenant Health,Voluntary,False,False,False,True,False,killam health care centre,83.0,,Hospitals,Canadian Institute for Health Information,5203.0,49 avenue,T0B2L0,killam,ab,5203 49 avenue killam ab t0b 2l0 canada,Killam,52.788935,-111.859551,0,53.54568100000001,-113.44408200000001,0.7567460000000068,1.5845310000000126
99,102,Lacombe,Lacombe Hospital And Care Centre,"5430 47 Avenue LACOMBE, Alberta T4L 1G8",Alberta Health Services,Alberta Health Services,False,False,False,True,False,lacombe hospital and care centre,174.0,general,Hospitals,Public Health Agency of Canada,5430.0,47 ave,T4L1G8,lacombe,ab,5430 - 47th ave. lacombe ab t4l 1g8,Lacombe,52.460676600000006,-113.7411041,0,52.349481,-110.266256,0.11119560000000916,3.4748481000000027
100,103,Lamont,Lamont Health Care Centre,"5216 53 Street Bag 10 LAMONT, Alberta T0B 2R0",The United Church Of Canada,Voluntary,False,False,False,True,True,lamont health care centre,175.0,general,Hospitals,Public Health Agency of Canada,5216.0,53 st,T0B2R0,lamont,ab,5216 - 53rd st. lamont ab t0b 2r0,Lamont,53.762612,-112.788581,0,52.349481,-110.266256,1.413131,2.522324999999995
101,104,Lloydminster,Lloydminster Continuing Care Centre,"7402 – 29th Street, LLOYDMINSTER, Alberta, T9V 3N1",Prairie North Regional Health Authority,RHA,False,False,False,True,False,lloydminster continuing care centre,179.0,,Nursing and residential care facilities,Saskatchewan Health Authorities,7402.0,29 street,T9V3N1,lloydminster,ab,"7402 - 29 street lloydminster, ab t9v 3n1",Lloydminster (Part),53.274952,-110.017784,0,58.520458999999995,-117.142903,5.245506999999996,7.125118999999998
103,106,Milk River,Milk River Health Centre,"517 Centre Avenue East MILK RIVER, Alberta T0K1M0",Alberta Health Services,Alberta Health Services,False,False,False,True,False,milk river health centre,190.0,general,Hospitals,Public Health Agency of Canada,517.0,centre ave e,T0K1M0,milk river,ab,517 centre ave. e. milk river ab t0k 1m0,Milk River,49.148256,-112.0763544,0,52.762499,-110.463576,3.6142429999999948,1.6127783999999963
104,107,Manning,Manning Community Health Centre,"600 2 Street NE MANNING, Alberta T0H 2M0",Alberta Health Services,Alberta Health Services,False,False,False,True,False,manning community health centre,182.0,general,Hospitals,Public Health Agency of Canada,600.0,2 st ne,T0H2M0,manning,ab,600 - 2nd st. n.e. manning ab t0h 2m0,Manning,56.927995900000006,-117.621417,0,53.263899,-110.051809,3.664096900000004,7.569607999999988
108,111,Mayerthorpe,Mayerthorpe Healthcare Centre,"4417 45 Street MAYERTHORPE, Alberta T0E1N0",Alberta Health Services,Alberta Health Services,False,False,False,True,False,mayerthorpe healthcare centre,187.0,general,Hospitals,Public Health Agency of Canada,4706.0,54 st,T0E1N0,mayerthorpe,ab,4706 - 54th st. mayerthorpe ab t0e 1n0,Mayerthorpe,53.95219399999999,-115.1472169,0,53.33635699999999,-111.173472,0.6158369999999991,3.9737449
114,117,Banff,Mineral Springs Hospital,"305 Lynx Street PO Box 1050 BANFF, Alberta T1L 1H7",Covenant Health,Voluntary,False,False,False,True,False,mineral springs hospital,85.0,,Hospitals,Canadian Institute for Health Information,305.0,lynx street,T1L1B8,banff,ab,305 lynx street banff ab t1l 1b8 canada,Banff,51.17925,-115.574865,0,53.605486,-113.41620400000001,2.426235999999996,2.158660999999995
118,122,Fort McMurray,Northern Lights Regional Health Centre,"7 Hospital Street FORT MCMURRAY, Alberta T9H 1P2",Alberta Health Services,Alberta Health Services,False,False,False,True,False,northern lights regional health centre,195.0,general,Hospitals,Public Health Agency of Canada,7.0,hospital st,T9H1P2,fort mcmurray,ab,7 hospital st. fort mcmurray ab t9h 1p2,Wood Buffalo,56.71635229999999,-111.3622389,0,51.178841999999996,-115.574436,5.537510299999994,4.212197100000012
119,123,High Level,Northwest Health Centre,"11202 100 Avenue HIGH LEVEL, Alberta T0H 1Z0",Alberta Health Services,Alberta Health Services,False,False,False,True,False,northwest health centre,196.0,general,Hospitals,Public Health Agency of Canada,11202.0,100 ave,T0H1Z0,high level,ab,11202-100 ave. high level ab t0h 1z0,High Level,58.5135257,-117.1621529,0,51.036246999999996,-114.08446699999999,7.4772787000000065,3.077685900000006
122,126,Castor,Our Lady Of The Rosary Hospital,"5402 47 Street CASTOR, Alberta T0C 0X0",Covenant Health,Voluntary,False,False,False,True,False,our lady of the rosary hospital,87.0,general,Hospitals,Public Health Agency of Canada,5402.0,47 st,T0C0X0,castor,ab,5402 - 47 st. castor ab t0c 0x0,Castor,52.2234403,-111.9068616,0,56.71679,-111.363267,4.493349700000003,0.5435946000000058
123,128,Peace River,Peace River Community Health Centre,"10101 68 Street PEACE RIVER, Alberta T8S 1T6",Alberta Health Services,Alberta Health Services,False,False,False,True,False,peace river community health centre,208.0,general,Hospitals,Public Health Agency of Canada,10101.0,68 st,T8S1T6,peace river,ab,10101 - 68 st. peace river ab t8s 1t6,Peace River,56.231053,117.354442,0,58.514586,-117.159873,2.2835329999999985,234.514315
124,129,Pincher Creek,Pincher Creek Health Centre,"1222 Mill Ave PINCHER CREEK, Alberta T0K 1W0",Alberta Health Services,Alberta Health Services,False,False,False,True,False,pincher creek health centre,210.0,general,Hospitals,Public Health Agency of Canada,1222.0,mill ave,T0K1W0,pincher creek,ab,1222 mill ave. pincher creek ab t0k 1w0,Pincher Creek,49.49345200000001,-113.946935,0,50.686012,-114.232773,1.192559999999986,0.28583799999999826
126,131,Ponoka,Ponoka Hospital And Care Centre,"5800 57 Avenue PONOKA, Alberta T4J 1P1",Alberta Health Services,Alberta Health Services,False,False,False,True,False,ponoka hospital and care centre,214.0,general,Hospitals,Public Health Agency of Canada,5800.0,57 ave,T4J1P1,ponoka,ab,5800 - 57th ave. ponoka ab t4j 1p1,Ponoka,52.684724,-113.58951100000002,0,52.223287,-111.90699099999999,0.46143700000000365,1.682520000000025
128,133,Provost,Provost Health Centre,"5002 54 Avenue Box 270 PROVOST, Alberta T0B 3S0",Alberta Health Services,Alberta Health Services,False,False,False,True,False,provost health centre,215.0,general,Hospitals,Public Health Agency of Canada,5002.0,54 ave,T0B3S0,provost,ab,5002 - 54th ave. provost ab t0b 3s0,Provost,52.357969,110.26484,0,56.230554000000005,-117.355814,3.872585000000008,227.620654
131,136,Raymond,Raymond Health Centre,"150 N 4 Street East RAYMOND, Alberta T0K 2S0",Alberta Health Services,Alberta Health Services,False,False,False,True,False,raymond health centre,223.0,general,Hospitals,Public Health Agency of Canada,150.0,n 4 st e,T0K2S0,raymond,ab,150 n. - 4th st. e. raymond ab t0k 2s0,Raymond,49.4647002,-112.650584,0,52.68324499999999,-113.589572,3.2185447999999894,0.938988000000009
132,137,Redwater,Redwater Health Centre,"4812 58 Street REDWATER, Alberta T0A 2W0",Alberta Health Services,Alberta Health Services,False,False,False,True,False,redwater health centre,225.0,general,Hospitals,Public Health Agency of Canada,4812.0,58 st,T0A2W0,redwater,ab,4812 - 58 st. redwater ab t0a 2w0,Redwater,53.9495991,-113.1255813,0,50.921196,-114.06348700000001,3.0284030999999985,0.9379057000000159
133,138,Rimbey,Rimbey Hospital And Care Centre,"5228 50 Avenue RIMBEY, Alberta T0C 2J0",Alberta Health Services,Alberta Health Services,False,False,False,True,False,rimbey hospital and care centre,237.0,general,Hospitals,Public Health Agency of Canada,5228.0,50 ave,T0C2J0,rimbey,ab,5228 - 50th ave. rimbey ab t0c 2j0,Rimbey,52.6396975,-114.2459585,0,52.357168,-110.264871,0.28252949999999544,3.981087500000001
141,146,Slave Lake,Slave Lake Healthcare Centre,"309 6 Street NE SLAVE LAKE, Alberta T0G 2A2",Alberta Health Services,Alberta Health Services,False,False,False,True,False,slave lake healthcare centre,255.0,general,Hospitals,Public Health Agency of Canada,309.0,6 st ne,T0G2A2,slave lake,ab,309 - 6th st. n.e. slave lake ab t0g 2a2,Slave Lake,55.284356,-114.760739,0,51.056424,-113.379384,4.227932000000003,1.3813549999999992
148,153,Fort Vermilion,St. Theresa General Hospital,"4506 46 Avenue FORT VERMILION, Alberta T0H 1N0",Alberta Health Services,Alberta Health Services,False,False,False,True,False,st. theresa general hospital,271.0,general,Hospitals,Public Health Agency of Canada,4506.0,46 ave,T0H1N0,fort vermilion,ab,4506 - 46 ave. fort vermilion ab t0h 1n0,Mackenzie County,58.3858843,-116.0122067,0,53.496103000000005,-113.51858200000001,4.889781299999996,2.493624699999984
149,154,St Paul,St. Therese - St. Paul Healthcare Centre,"4713 48 Avenue ST. PAUL, Alberta T0A 3A3",Alberta Health Services,Alberta Health Services,False,False,False,True,False,st. therese - st. paul healthcare centre,272.0,,Hospitals,Canadian Institute for Health Information,4713.0,48 avenue,T0A3A3,st paul,ab,4713 - 48th avenue st. paul ab t0a3a3 canada,St. Paul,53.98926700000001,-111.290463,0,53.459835,-113.506064,0.5294320000000141,2.2156009999999924
151,156,Sundre,Sundre Hospital And Care Centre,"709 1 Street NE SUNDRE, Alberta T0M 1X0",Alberta Health Services,Alberta Health Services,False,False,False,True,False,sundre hospital and care centre,279.0,general,Hospitals,Public Health Agency of Canada,709.0,1 st ne,T0M1X0,sundre,ab,709 - 1st st. n.e. sundre ab t0m 1x0,Sundre,51.807789,-114.635486,0,49.685846000000005,-112.82273500000001,2.1219429999999946,1.8127509999999916
154,159,Taber,Taber Health Centre,"4326 50 Avenue TABER, Alberta T1G 1N9",Alberta Health Services,Alberta Health Services,False,False,False,True,False,taber health centre,285.0,general,Hospitals,Public Health Agency of Canada,4326.0,50 ave,T1G1N9,taber,ab,4326 - 50th ave. taber ab t1g 1n9,Taber,49.7850125,-112.1651375,0,53.948816,-113.10615,4.1638035,0.9410124999999994
157,162,Three Hills,Three Hills Health Centre,"1504 2 Street North THREE HILLS, Alberta T0M 2A0",Alberta Health Services,Alberta Health Services,False,False,False,True,False,three hills health centre,299.0,general,Hospitals,Public Health Agency of Canada,1504.0,2 st n,T0M2A0,three hills,ab,1504 - 2nd st. n. three hills ab t0m 2a0,Three Hills,51.7078018,-113.25108590000002,0,50.024153999999996,-110.72691,1.6836478000000028,2.5241759000000172
158,163,Tofield,Tofield Health Centre,"5543 44 Street Box 1200 TOFIELD, Alberta T0B 4J0",Alberta Health Services,Alberta Health Services,False,False,False,True,True,tofield health centre,300.0,general,Hospitals,Public Health Agency of Canada,5543.0,44 st,T0B4J0,tofield,ab,5543 - 44 st. tofield ab t0b 4j0,Tofield,53.372657200000006,-112.6510992,0,53.218167,-114.95563899999999,0.15449020000000502,2.3045397999999864
160,165,Two Hills,Two Hills Health Centre,"4401 53 Avenue TWO HILLS, Alberta T0B 4K0",Alberta Health Services,Alberta Health Services,False,False,False,True,True,two hills health centre,307.0,general,Hospitals,Public Health Agency of Canada,4401.0,53 ave,T0B4K0,two hills,ab,4401 - 53rd ave. two hills ab t0b 4k0,Two Hills,53.7132007,-111.731815,0,53.613324,-113.513999,0.09987670000000293,1.7821840000000009
161,166,Valleyview,Valleyview Health Centre,"4802 Highway Street East VALLEYVIEW, Alberta T0H3N0",Alberta Health Alberta Health Services Services,Alberta Health Alberta Health Services Services,False,False,False,True,False,valleyview health centre,310.0,general,Hospitals,Public Health Agency of Canada,4802.0,highway st e,T0H3N0,valleyview,ab,4802 highway st. e. valleyview ab t0h 3n0,Valleyview,55.066647,-117.273404,0,50.036033,-110.708418,5.030614,6.564986000000005
164,169,Vermilion,Vermilion Health Centre,"5720 50 Avenue VERMILION, Alberta T9X 1K7",Alberta Health Services,Alberta Health Services,False,False,False,False,True,vermilion health centre,313.0,general,Hospitals,Public Health Agency of Canada,5720.0,50 ave,T9X1K7,vermilion,ab,5720 - 50th ave. vermilion ab t9x 1k7,Vermilion,53.3547731,-110.8730789,0,53.483706999999995,-113.642785,0.12893389999999272,2.7697061000000076
165,170,Vulcan,Vulcan Community Health Centre,"610 Elizabeth Street S VULCAN, Alberta T0L 2B0",Alberta Health Services,Alberta Health Services,False,False,False,True,False,vulcan community health centre,316.0,general,Hospitals,Public Health Agency of Canada,610.0,elizabeth st s,T0L2B0,vulcan,ab,610 elizabeth st. s. vulcan ab t0l 2b0,Vulcan,50.3961012,-113.2588,0,53.713319999999996,-111.734187,3.317218799999999,1.524612999999988
166,171,Wainwright,Wainwright Health Centre,"530 6 Avenue WAINWRIGHT, Alberta T9W 1R6",Alberta Health Services,Alberta Health Services,False,False,False,True,False,wainwright health centre,318.0,general,Hospitals,Public Health Agency of Canada,530.0,6 ave,T9W1R6,wainwright,ab,530 - 6th ave. wainwright ab t9w 1r6,Wainwright,52.840949,-110.865862,0,55.067828000000006,-117.296647,2.226879000000004,6.430784999999986
169,174,Westlock,Westlock Healthcare Centre [Westlock Continuing Care Centre],"10220 93 Street WESTLOCK, Alberta T7P2G4",Alberta Health Services,Alberta Health Services,False,False,False,True,False,westlock healthcare centre,320.0,general,Hospitals,Public Health Agency of Canada,10220.0,93 st,T7P2G4,westlock,ab,10220 - 93rd st. westlock ab t7p 2g4,Westlock,54.14653000000001,-113.853259,0,53.354634999999995,-110.87101100000001,0.791895000000018,2.9822479999999842
171,176,Stony Plain,Westview Health Centre - Stony Plain,"4405 Southpark Drive STONY PLAIN, Alberta T7Z2M7",Alberta Health Services,Alberta Health Services,False,False,False,True,False,westview health centre - stony plain,323.0,,Ambulatory health care services,Province of Alberta,4405.0,south park drive,T7Z2M7,stony plain,ab,"4405 ñ south park drive, stony plain, alberta, t7z 2m7",Stony Plain,53.53827,-113.978791,0,52.84046800000001,-110.866525,0.6978019999999887,3.1122660000000053
172,177,Wetaskiwin,Wetaskiwin Hospital and Care Centre,"6910 47 Street WETASKIWIN, Alberta T9A3N3",Alberta Health Services,Alberta Health Services,False,False,False,False,True,wetaskiwin hospital and care centre,324.0,general,Hospitals,Public Health Agency of Canada,6910.0,47 st,T9A3N3,wetaskiwin,ab,6910 - 47th st. wetaskiwin ab t9a 3n3,Wetaskiwin,52.986764,-113.367947,0,50.873951,-114.03691299999998,2.1128130000000027,0.6689659999999833
173,178,Lac La Biche,William J. Cadzow - Lac La Biche Healthcare Centre,"9110 93 Street LAC LA BICHE, Alberta T0A 2C0",Alberta Health Services,Alberta Health Services,False,False,False,True,False,william j. cadzow - lac la biche healthcare centre,326.0,,Ambulatory health care services,Province of Alberta,9110.0,93 street,T0A2C0,lac la biche,ab,"9110 - 93 street, lac la biche, alberta, t0a 2c0",Lac la Biche County,54.7643782,-111.9635723,0,51.03968,-114.170208,3.724698200000006,2.2066357000000068
