,Location,Facility Name,Facility Address,Operator Name,Operator Type,DSL-3,DSL-4,DSL-4-Dementia,LTC-Auxilary Hospital,LTC-Nursing Home,facility_name,index,source_facility_type,odhf_facility_type,provider,street_no,street_name,postal_code,city,province,source_format_str_address,CSDname,latitude,longitude,outbreak_status
0,Edson,Edson Healthcare Centre (LTC) [Edson Continuing Care],"3825 - 6th Avenue EDSON, Alberta T7E0C5",Alberta Health Services,Alberta Health Services,False,False,False,False,True,edson healthcare centre,111.0,general,Hospitals,Public Health Agency of Canada,4716,5 ave,T7E1S8,edson,ab,4716 - 5th ave. edson ab t7e 1s8,Edson,53.59182,-116.40700000000001,0
1,Edmonton,Allen Gray Continuing Care Centre,"5005 28 Avenue EDMONTON, Alberta T6L 7G1",The Gray House Guild,Voluntary,False,False,False,True,False,allen gray continuing care centre,14.0,long term care,Nursing and residential care facilities,Canadian Institute for Health Information,,,T6L7G1,edmonton,ab,,Edmonton,,,0
2,Athabasca,Athabasca Healthcare Centre,"3100 48 Avenue ATHABASCA, Alberta T9S1M9",Alberta Health Services,Alberta Health Services,False,False,False,True,False,athabasca healthcare centre,15.0,general,Hospitals,Public Health Agency of Canada,3100,48 ave,T9S1M9,athabasca,ab,3100 - 48th ave. athabasca ab t9s 1m9,Athabasca,54.717240000000004,-113.254056,0
3,DBaidsssbaunroy,BaAssspaenno  RHidegaelth L Codegnetre,"1610080  52 0A Avevennuue e BADSIDSSABNUOR, YA,l bAelrbtear Tta0 J T0M0B 00W0",MAlobuenrttaa iHn eVaieltwh SenSioerr vHicoeussing,Voluntary,False,True,True,True,False,baassspaenno  rhidegaelth l codegnetre,,,,,,,,,,,,,,0
4,Calgary,Bow View Manor,"4628 Montgomery NW, CALGARY, Alberta T3B0K7",The Brenda Strafford Foundation,Voluntary,False,False,False,True,True,bow view manor,289.0,long term care,Nursing and residential care facilities,Canadian Institute for Health Information,,,T3B0K7,calgary,ab,,Calgary,,,0
5,Calgary,Carewest Sarcee,"3504 Sarcee Road SW 608 5 Avenue CALGARY, Alberta T3E BASSANO, Alberta T0J4T4",Carewest,Alberta Health Services,False,False,False,True,True,carewest sarcee,59.0,"active acute hospital, long term care",Nursing and residential care facilities,Canadian Institute for Health Information,,,T3E4T4,calgary,ab,,Calgary,,,0
6,Airdrie,Bethany Airdrie,"1736 1 Avenue NW 608 5 Avenue AIRDRIE, Alberta T4B BASSANO, Alberta T0J2C4",Bethany Care Society,Voluntary,False,False,False,True,True,bethany airdrie,24.0,long term care,Nursing and residential care facilities,Canadian Institute for Health Information,,,T4B2C4,airdrie,ab,,Airdrie,,,0
7,Bassano,Bassano Health Centre,"608 5 Avenue BASSANO, Alberta T0J 0B0",Alberta Health Services,Alberta Health Services,False,False,False,True,False,bassano health centre,21.0,general,Hospitals,Public Health Agency of Canada,608,5 ave,T0J0B0,bassano,ab,608 - 5th ave. bassano ab t0j 0b0,Bassano,50.7892616,-112.46105700000001,0
8,Bentley,Bentley Care Centre,"4834 52 Avenue BENTLEY, Alberta T0C 0J0",Alberta Health Services,Alberta Health Services,False,False,False,True,False,bentley care centre,23.0,extended care,Hospitals,Public Health Agency of Canada,4834,52 ave,T0C0J0,bentley,ab,4834 - 52nd ave. bentley ab t0c 0j0,Bentley,52.467743999999996,-114.04616000000001,0
9,Calgary,Bethany Calgary,"916 18A Street NW CALGARY, Alberta T2N 1C6",Bethany Care Society,Voluntary,False,False,False,True,False,bethany calgary,25.0,long term care,Nursing and residential care facilities,Canadian Institute for Health Information,,,T2N1C6,calgary,ab,,Calgary,,,0
10,Cochrane,Bethany Cochrane,"302 Quigley Drive COCHRANE, Alberta T4C 1X9",Bethany Care Society,Voluntary,False,False,False,False,True,bethany cochrane,26.0,long term care,Nursing and residential care facilities,Canadian Institute for Health Information,,,T4C1X9,cochrane,ab,,Cochrane,,,0
11,Red Deer,Bethany Collegeside (Red Deer),"99 College Circle RED DEER, Alberta, T4R0M3",Bethany Care Society,Voluntary,False,False,False,False,True,bethany collegeside,27.0,long term care,Nursing and residential care facilities,Canadian Institute for Health Information,,,T4R0M3,red deer,ab,,Red Deer,,,0
12,Calgary,Bethany Harvest Hills,"19 Harvest Gold Manor NE CALGARY, Alberta T3K 4Y1",Bethany Care Society,Voluntary,False,False,False,False,True,bethany harvest hills,28.0,long term care,Nursing and residential care facilities,Canadian Institute for Health Information,,,T3K4Y1,calgary,ab,,Calgary,,,0
13,Camrose,Bethany Meadows (LTC),"4209 55 Street CAMROSE, Alberta T4V 1Y6",The Bethany Group,Voluntary,False,False,False,True,False,bethany meadows,286.0,long term care,Nursing and residential care facilities,Canadian Institute for Health Information,,,T4V1Y6,camrose,ab,,Camrose,,,0
14,Sylvan Lake,Bethany Sylvan Lake (LTC),"4700 47 Avenue SYLVAN LAKE, Alberta T4S 2M3",Bethany Care Society,Voluntary,False,False,False,False,True,bethany sylvan lake,30.0,long term care,Nursing and residential care facilities,Canadian Institute for Health Information,,,T4S2M3,sylvan lake,ab,,Sylvan Lake,,,0
15,Calgary,Beverly Centre Glenmore,"1729 90 Avenue SW CALGARY, Alberta T2V 4S1",Age Care Investments Ltd [AgeCare Ltd.],Private,False,False,False,False,True,beverly centre glenmore,2.0,long term care,Nursing and residential care facilities,Canadian Institute for Health Information,,,T2V4S1,calgary,ab,,Calgary,,,0
16,Calgary,Beverly Centre Lake Midnapore,"500 Midpark Way SE CALGARY, Alberta T2X 3S3",Age Care Investments Ltd [AgeCare Ltd.],Private,False,False,False,False,True,beverly centre lake midnapore,3.0,long term care,Nursing and residential care facilities,Canadian Institute for Health Information,,,T2X3S3,calgary,ab,,Calgary,,,0
17,Oyen,Big Country Hospital,312 3 Avenue East OYEN Alberta T0J2J0,Alberta Health  Services,Alberta Health Services,False,False,False,True,False,big country hospital,32.0,,Hospitals,Province of Alberta,312,3 avenue e,T0J2J0,oyen,ab,"312 3rd avenue e., oyen, alberta, t0j 2j0",Oyen,51.351585,-110.47881299999999,0
18,Bonnyville,Bonnyville Healthcare Centre,"5001 Lakeshore Drive BONNYVILLE, Alberta T9N 2J7",Covenant Health,Voluntary,False,False,False,True,False,bonnyville healthcare centre,35.0,,Ambulatory health care services,Province of Alberta,5001,lakeshore drive,T9N2J7,bonnyville,ab,"5001 lakeshore drive, bonnyville, alberta, t9n 2j7",Bonnyville,54.26373,-110.7393,0
19,Bonnyville,Bonnyville Healthcare Centre,"5001 Lakeshore Drive BONNYVILLE, Alberta T9N 2J7",Covenant Health,Voluntary,False,False,False,True,False,bonnyville healthcare centre,80.0,"active acute hospital, long term care",Hospitals,Canadian Institute for Health Information,,,T9N2J7,bonnyville,ab,,Bonnyville,,,0
20,Calgary,Bow Crest Care Centre,"5927 Bowness Road, NW CALGARY, Alberta T3B 0C7",Revera Long Term Care Inc.,Private,False,False,False,False,True,bow crest care centre,229.0,long term care,Nursing and residential care facilities,Canadian Institute for Health Information,,,T3B0C7,calgary,ab,,Calgary,,,1
21,Bow Island,Bow Island Health Centre,"938 Centre Street,   PO Bag 3990 BOW ISLAND, Alberta T0K 0G0",Alberta Health Services,Alberta Health Services,False,False,False,True,False,bow island health centre,36.0,general,Hospitals,Public Health Agency of Canada,938,centre st,T0K0G0,bow island,ab,938 centre st. bow island ab t0k 0g0,Bow Island,49.8655484,-111.3793987,0
22,Breton,Breton Health Centre,"4919 49 Avenue BRETON, Alberta T0C 0P0",Alberta Health Services,Alberta Health Services,False,False,False,True,False,breton health centre,40.0,extended care,Hospitals,Public Health Agency of Canada,4919,49 ave,T0C0P0,breton,ab,4919 - 49 ave. breton ab t0c 0p0,Breton,53.1092291,-114.4712943,0
23,Brooks,Brooks Health Centre,"440 Third Street East (Bag 300, T1R 1B3) BROOKS, Alberta T1R 0X8",Alberta Health Services,Alberta Health Services,False,False,False,False,True,brooks health centre,41.0,general,Hospitals,Public Health Agency of Canada,440,3 st e,T1R1B3,brooks,ab,440 - 3rd st. e. brooks ab t1r 1b3,Brooks,50.567656400000004,-111.890977,0
24,Canmore,Canmore General Hospital [Golden Eagle View LTC],"1100 Hospital Place CANMORE, Alberta T1W 1N2",Alberta Health Services,Alberta Health Services,False,False,False,True,False,canmore general hospital,44.0,general,Hospitals,Public Health Agency of Canada,1100,hospital place,T1W1N2,canmore,ab,1100 hospital place canmore ab t1w 1n2,Canmore,51.09301,-115.350651,0
25,Edmonton,CapitalCare Dickinsfield,"14225 94 Street NW EDMONTON, Alberta T5E 6C6",Capital Care Group Inc.,Alberta Health Services,False,False,False,True,True,dickinsfield,45.0,long term care,Nursing and residential care facilities,Canadian Institute for Health Information,,,T5E6C6,edmonton,ab,,Edmonton,,,0
26,Edmonton,CapitalCare Grandview,"6215 124 Street EDMONTON, Alberta T6H 3V1",Capital Care Group Inc.,Alberta Health Services,False,False,False,True,False,grandview,46.0,"active acute hospital, long term care",Hospitals,Canadian Institute for Health Information,,,T6H3V1,edmonton,ab,,Edmonton,,,0
27,Edmonton,CapitalCare Lynnwood,"8740 165 Street EDMONTON, Alberta, T5R2R8",Capital Care Group Inc.,Alberta Health Services,False,False,False,True,True,lynnwood,47.0,long term care,Nursing and residential care facilities,Canadian Institute for Health Information,,,T5R2R8,edmonton,ab,,Edmonton,,,0
28,Edmonton,CapitalCare Norwood,"10410 111 Avenue EDMONTON, Alberta T5G 3A2",Capital Care Group Inc.,Alberta Health Services,False,False,False,True,False,norwood,48.0,"active acute hospital, long term care",Hospitals,Canadian Institute for Health Information,,,T5G3A2,edmonton,ab,,Edmonton,,,0
29,Sherwood Park,CapitalCare Strathcona (LTC),"12 Brower Drive SHERWOOD PARK, Alberta T8H 1V3",Capital Care Group Inc.,Alberta Health Services,False,False,False,False,True,strathcona,49.0,long term care,Nursing and residential care facilities,Canadian Institute for Health Information,,,T8H1V3,sherwood park,ab,,,,,0
30,Cardston,Cardston Health Centre,"144 2 Street West PO Box 1440 CARDSTON, Alberta T0K 0K0",Alberta Health Services,Alberta Health Services,False,False,False,True,False,cardston health centre,51.0,general,Hospitals,Public Health Agency of Canada,144,2 st w,T0K0K0,cardston,ab,144 - 2nd st. w. cardston ab t0k 0k0,Cardston,49.201947,-113.305761,0
31,Calgary,Carewest Colonel Belcher (LTC),"1939 Veterans Way NW CALGARY, Alberta T3B 5Y8",Carewest,Alberta Health Services,False,False,False,True,False,carewest colonel belcher,52.0,"active acute hospital, long term care",Nursing and residential care facilities,Canadian Institute for Health Information,,,T3B5Y8,calgary,ab,,Calgary,,,0
32,Calgary,Carewest Dr. Vernon Fanning Centre,"722 16th Avenue NE CALGARY, Alberta T2E6V7",Carewest,Alberta Health Services,False,False,False,True,False,carewest dr. vernon fanning centre,53.0,"active acute hospital, long term care",Nursing and residential care facilities,Canadian Institute for Health Information,,,T2E6V7,calgary,ab,,Calgary,,,0
33,Calgary,Carewest Garrison Green,"3108 Don Ethell Boulevard SW CALGARY, Alberta T3E 6Z5",Carewest,Alberta Health Services,False,False,False,False,True,carewest garrison green,54.0,long term care,Nursing and residential care facilities,Canadian Institute for Health Information,,,T3E6Z5,calgary,ab,,Calgary,,,0
34,Calgary,Carewest George Boyack,"1203 Centre Avenue NE CALGARY, Alberta T2E 0A5",Carewest,Alberta Health Services,False,False,False,False,True,carewest george boyack,55.0,long term care,Nursing and residential care facilities,Canadian Institute for Health Information,,,T2E0A5,calgary,ab,,Calgary,,,0
35,Calgary,Carewest Rouleau Manor,"2208 2 Street SW CALGARY, Alberta T2S 3C3",Carewest,Alberta Health Services,False,False,False,False,True,carewest rouleau manor,57.0,long term care,Nursing and residential care facilities,Canadian Institute for Health Information,,,T2S3C3,calgary,ab,,Calgary,,,0
36,Calgary,Carewest Royal Park,"4222 Sarcee Road SW CALGARY, Alberta T3E 7J8",Carewest,Alberta Health Services,False,False,False,False,True,carewest royal park,58.0,long term care,Nursing and residential care facilities,Canadian Institute for Health Information,,,T3E7J8,calgary,ab,,Calgary,,,0
37,Calgary,Carewest Signal Pointe,"6363 Simcoe Road SW CALGARY, Alberta T3H 4M3",Carewest,Alberta Health Services,False,False,False,False,True,carewest signal pointe,60.0,long term care,Nursing and residential care facilities,Canadian Institute for Health Information,,,T3H4M3,calgary,ab,,Calgary,,,0
38,Spirit River,Central Peace Health Complex,"5010 45 Avenue SPIRIT RIVER, Alberta T0H 3G0",Alberta Health Services,Alberta Health Services,False,False,False,True,False,central peace health complex,63.0,general,Hospitals,Public Health Agency of Canada,5010,45 ave,T0H3G0,spirit river,ab,5010 - 45 ave. spirit river ab t0h 3g0,Spirit River,55.776981000000006,-118.83875400000001,0
39,St. Albert,Citadel Care Centre,"25 Erin Ridge Road ST. ALBERT, Alberta T8N 7K8",Citadel Care Corporation [Qualicare Corporation],Private,False,False,False,False,True,citadel care centre,216.0,long term care,Nursing and residential care facilities,Canadian Institute for Health Information,,,T8N7K8,st albert,ab,,St. Albert,,,0
40,Rocky Mountain House,Clearwater Centre (Rocky Mountain House) (LTC),"5615 60 St, Rocky Mountain House, Alberta T4T1W2",The Good Samaritan Society (A Lutheran Social Service Organization),Voluntary,False,False,False,False,True,good samaritan society rocky mountain house clearwater centre,295.0,long term care,Nursing and residential care facilities,Canadian Institute for Health Information,,,T4T1W2,rocky mountain house,ab,,Rocky Mountain House,,,0
41,Calgary,Clifton Manor,"4726 8 Avenue SE CALGARY, Alberta T2A 0A8",The Brenda Strafford Foundation,Private,False,False,False,False,True,clifton manor,290.0,long term care,Nursing and residential care facilities,Canadian Institute for Health Information,,,T2A0A8,calgary,ab,,Calgary,,,0
42,Medicine Hat,Club Sierra at River Ridge (LTC),"4 River Ridge Drive NW MEDICINE HAT, Alberta T1A 8V1",Club Sierra Lifestyles At River Ridge Inc.,Private,False,False,False,False,True,club sierra at river ridge,206.0,long term care,Nursing and residential care facilities,Canadian Institute for Health Information,,,T1A8V1,medicine hat,ab,,Medicine Hat,,,0
43,Coaldale,Coaldale Health Centre,"2100 11 Street COALDALE, Alberta T1M 1L2",Alberta Health Services,Alberta Health Services,False,False,False,True,False,coaldale health centre,69.0,general,Hospitals,Public Health Agency of Canada,2100,11 st,T1M1L2,coaldale,ab,2100 - 11 st. coaldale ab t1m 1l2,Coaldale,49.725825,-112.607294,0
44,Cold Lake,Cold Lake Healthcare Centre,"314 25 Street COLD LAKE, Alberta T9M 1G6",Alberta Health  Services,Alberta Health Services,False,False,False,True,False,cold lake healthcare centre,71.0,general,Hospitals,Public Health Agency of Canada,314,25 st,T9M1G6,cold lake,ab,314 - 25th st. cold lake ab t9m 1g6,Cold Lake,54.4658735,-110.199018,0
45,Consort,Consort Hospital And Care Centre,"5402 52 Avenue CONSORT, Alberta T0C 1B0",Alberta Health Services,Alberta Health Services,False,False,False,True,False,consort hospital and care centre,73.0,,Hospitals,Province of Alberta,5402,52 avenue,T0C1B0,consort,ab,"5402 ñ 52 avenue, consort, alberta, t0c 1b0",Consort,52.01200479999999,-110.77178880000001,0
46,Coronation,Coronation Hospital And Care Centre,"5000 Municipal Road CORONATION, Alberta T0C 1C0",Alberta Health Services,Alberta Health Services,True,False,False,True,False,coronation hospital and care centre,75.0,,Hospitals,Province of Alberta,5000,municipal road,T0C1C0,coronation,ab,"5000 municipal road, coronation, alberta, t0c 1c0",Coronation,52.096421299999996,-111.4597738,0
47,Blairmore,Crowsnest Pass Health Centre,"2001 107 Street BLAIRMORE, Alberta T0K 0E0",Alberta Health Services,Alberta Health Services,False,False,False,True,True,crowsnest pass health centre,96.0,general,Hospitals,Public Health Agency of Canada,2001,107 st,T0K0E0,blairmore,ab,2001 - 107 st. blairmore ab t0k 0e0,Crowsnest Pass,49.6131739,-114.4736247,0
48,Devon,Devon General Hospital,"101 Erie Street South DEVON, Alberta T9G 1A6",Alberta Health Services,Alberta Health Services,False,False,False,True,False,devon general hospital,100.0,general,Hospitals,Public Health Agency of Canada,101,erie st s,T9G1A6,devon,ab,101 erie st. s. devon ab t9g 1a6,Devon,53.351493000000005,-113.73078500000001,0
49,Edmonton,Devonshire Care Centre,"1808 142 Street NW EDMONTON, Alberta T6R 3H2",Park Place Seniors Living Inc.,Private,False,False,False,False,True,devonshire care centre,202.0,long term care,Nursing and residential care facilities,Canadian Institute for Health Information,,,T6R3H2,edmonton,ab,,Edmonton,,,0
50,Didsbury,Didsbury District Health Services,"1210 20 Avenue DIDSBURY, Alberta T0M 0W0",Alberta Health Services,Alberta Health Services,False,False,False,True,False,didsbury district health services,101.0,general,Hospitals,Public Health Agency of Canada,1210,20 ave,T0M0W0,didsbury,ab,1210 - 20th ave. didsbury ab t0m 0w0,Didsbury,51.661795,-114.123674,0
51,Lloydminster,Dr. Cooke Extended Care Centre,"3915 56 Avenue LLOYDMINSTER, Alberta T9V 1N9",Prairie North Regional Health Authority,RHA,False,False,False,True,False,dr. cooke extended care centre,103.0,,Nursing and residential care facilities,Saskatchewan Health Authorities,3915,56 avenue,T9V1N9,lloydminster,ab,"3915 ñ 56 avenue lloydminster, ab t9v 1n9",Lloydminster (Part),53.273049,-110.01916399999999,0
52,Barrhead,Dr. W.R. Keir - Barrhead Continuing Care Centre,"5336 59 Avenue BARRHEAD, Alberta T7N 1L2",Alberta Health Services,Alberta Health Services,False,False,False,False,True,dr. w.r. keir - barrhead continuing care centre,104.0,long term care,Nursing and residential care facilities,Canadian Institute for Health Information,,,T7N1L2,barrhead,ab,,Barrhead,,,0
53,Drayton Valley,Drayton Valley Hospital And Care Centre,"4550 Madsen Avenue DRAYTON VALLEY, Alberta T7A 1N8",Alberta Health Services,Alberta Health Services,False,False,False,True,True,drayton valley hospital and care centre,106.0,general,Hospitals,Public Health Agency of Canada,4550,madsen ave,T7A1N8,drayton valley,ab,4550 madsen ave. drayton valley ab t7a 1n8,Drayton Valley,53.211841,-114.96919299999999,0
54,Drumheller,Drumheller Health Centre,"351 9 Street NW DRUMHELLER, Alberta T0J 0Y1",Alberta Health Services,Alberta Health Services,False,False,False,True,False,drumheller health centre,108.0,general,Hospitals,Public Health Agency of Canada,351,9 st nw,T0J0Y1,drumheller,ab,351 - 9th st. n.w. drumheller ab t0j 0y1,Drumheller,51.4698073,-112.7259344,0
55,Lethbridge,Edith Cavell Care Centre,"1255 5 Avenue South LETHBRIDGE, Alberta T1J 0V6",Chantelle Management Ltd.,Private,False,False,False,False,True,edith cavell care centre,64.0,long term care,Nursing and residential care facilities,Canadian Institute for Health Information,,,T1J0V6,lethbridge,ab,,Lethbridge,,,0
56,Edmonton,Edmonton General Continuing Care Centre,"11111 Jasper Avenue EDMONTON, Alberta T5K 0L4",Covenant Health,Voluntary,False,False,False,True,False,edmonton general continuing care centre,81.0,"active acute hospital, long term care",Hospitals,Canadian Institute for Health Information,,,T5K0L4,edmonton,ab,,Edmonton,,,0
57,Elk Point,Elk Point Healthcare Centre,"5310 50 Avenue ELK POINT, Alberta T0A 1A0",Alberta Health Services,Alberta Health Services,False,False,False,True,False,elk point healthcare centre,112.0,general,Hospitals,Public Health Agency of Canada,5310,50 ave,T0A1A0,elk point,ab,5310 - 50 ave. elk point ab t0a 1a0,Elk Point,53.8969745,-110.9058049,0
58,Athabasca,Extendicare Athabasca,"4517 53 Street ATHABASCA, Alberta T9S 1K4",Extendicare (Canada) Inc.,Private,False,False,False,False,True,extendicare athabasca,113.0,long term care,Nursing and residential care facilities,Canadian Institute for Health Information,,,T9S1K4,athabasca,ab,,Athabasca,,,0
59,Bonnyville,Extendicare Bonnyville,"4602 47 Avenue BONNYVILLE, Alberta T9N 2E8",Extendicare (Canada) Inc.,Private,False,False,False,False,True,extendicare bonnyville,114.0,long term care,Nursing and residential care facilities,Canadian Institute for Health Information,,,T9N2E8,bonnyville,ab,,Bonnyville,,,0
60,Calgary,Extendicare Cedars Villa,"3330 8 Avenue SW CALGARY, Alberta T3C 0E7",Extendicare (Canada) Inc.,Private,False,False,False,False,True,extendicare cedars villa,115.0,long term care,Nursing and residential care facilities,Canadian Institute for Health Information,,,T3C0E7,calgary,ab,,Calgary,,,0
61,Edmonton,Extendicare Eaux Claires,"16503 95 Street EDMONTON, Alberta T5Z 0G7",Extendicare (Canada) Inc.,Private,False,False,False,False,True,extendicare eaux claires,116.0,long term care,Nursing and residential care facilities,Canadian Institute for Health Information,,,T5Z0G7,edmonton,ab,,Edmonton,,,0
62,Fort MacLeod,Extendicare Fort MacLeod,"654 29 Street Box 189 FORT MACLEOD, Alberta T0L 0Z0",Extendicare (Canada) Inc.,Private,False,False,False,False,True,extendicare fort macleod,117.0,long term care,Nursing and residential care facilities,Canadian Institute for Health Information,,,T0L0Z0,fort macleod,ab,,Fort Macleod,,,0
63,Calgary,Extendicare Hillcrest,"1512 8 Avenue NW CALGARY, Alberta T2N 1C1",Extendicare (Canada) Inc.,Private,False,False,False,False,True,extendicare hillcrest,118.0,long term care,Nursing and residential care facilities,Canadian Institute for Health Information,,,T2N1C1,calgary,ab,,Calgary,,,0
64,Edmonton,Extendicare Holyrood [Extendicare Holyrood (South)],"8008 95 Avenue EDMONTON, Alberta T6C 2T1",Extendicare (Canada) Inc.,Private,False,False,False,False,True,extendicare holyrood,119.0,long term care,Nursing and residential care facilities,Canadian Institute for Health Information,,,T6C2T1,edmonton,ab,,Edmonton,,,0
65,Leduc,Extendicare Leduc,"4309 50 Street Box 280 LEDUC, Alberta T9E 6K6",Extendicare (Canada) Inc.,Private,False,False,False,False,True,extendicare leduc,120.0,long term care,Nursing and residential care facilities,Canadian Institute for Health Information,,,T9E6K6,leduc,ab,,Leduc,,,0
66,Mayerthorpe,Extendicare Mayerthorpe,"4706 54 Street MAYERTHORPE, Alberta T0E 1N0",Extendicare (Canada) Inc.,Private,False,False,False,False,True,extendicare mayerthorpe,121.0,long term care,Nursing and residential care facilities,Canadian Institute for Health Information,,,T0E1N0,mayerthorpe,ab,,Mayerthorpe,,,0
67,Red Deer,Extendicare Michener Hill (LTC),"12 Michener Boulevard RED DEER, Alberta T4P 0M1",Extendicare (Canada) Inc.,Private,False,False,False,False,True,extendicare michener hill,122.0,long term care,Nursing and residential care facilities,Canadian Institute for Health Information,,,T4P0M1,red deer,ab,,Red Deer,,,0
68,St Paul,Extendicare St. Paul,"4614 47 Avenue ST. PAUL, Alberta T0A 3A3",Extendicare (Canada) Inc.,Private,False,False,False,False,True,extendicare st. paul,270.0,general,Hospitals,Public Health Agency of Canada,4713,48 ave,T0A3A3,st paul,ab,4713 - 48th ave. st. paul ab t0a 3a3,St. Paul,53.9888438,-111.2904497,0
69,Viking,Extendicare Viking,"5020 57 Avenue Box 430 VIKING, Alberta T0B 4N0",Extendicare (Canada) Inc.,Private,False,False,False,False,True,extendicare viking,124.0,long term care,Nursing and residential care facilities,Canadian Institute for Health Information,,,T0B4N0,viking,ab,,Viking,,,0
70,Vulcan,Extendicare Vulcan,"715 2 Avenue South VULCAN, Alberta T0L 2B0",Extendicare (Canada) Inc.,Private,False,False,False,False,True,extendicare vulcan,125.0,long term care,Nursing and residential care facilities,Canadian Institute for Health Information,,,T0L2B0,vulcan,ab,,Vulcan,,,0
71,Fairview,Fairview Health Complex [Continuing Care Centre],"10628 110 Street FAIRVIEW, Alberta T0H 1L0",Alberta Health Services,Alberta Health Services,False,False,False,True,False,fairview health complex,127.0,general,Hospitals,Public Health Agency of Canada,10628,110 st,T0H1L0,fairview,ab,10628 - 110 st. fairview ab t0h 1l0,Fairview,56.070965599999994,-118.3845521,0
72,Calgary,Father Lacombe Care Centre,"270 Providence Boulevard SE, CALGARY, Alberta T2X0V6",The Father Albert Lacombe Home,Voluntary,False,False,False,False,True,father lacombe care centre,128.0,long term care,Nursing and residential care facilities,Canadian Institute for Health Information,,,T2X2A3,calgary,ab,,Calgary,,,0
73,St. Albert,Foyer Lacombe,"1 St. Vital Avenue ST. ALBERT, Alberta T8N1K1",Convenant Care,Voluntary,False,False,False,False,True,foyer lacombe,77.0,long term care,Nursing and residential care facilities,Canadian Institute for Health Information,,,T8N1K1,st albert,ab,,St. Albert,,,0
74,Edmonton,Good Samaritan Society Southgate Care Centre,"4225 107 Street, EDMONTON, Alberta T6J2P1",The Good Samaritan Alberta Health Society (A Lutheran Social Service Organization),Voluntary,False,False,False,False,True,good samaritan society southgate care centre,297.0,long term care,Nursing and residential care facilities,Canadian Institute for Health Information,,,T6J2P1,edmonton,ab,,Edmonton,,,1
75,Evansburg,Good Samaritan Society Pembina Village,"5225 50 Street Evansburg, Alberta T0E0T0",The Good Samaritan Alberta Health Society (A Lutheran Social Service Organization),Voluntary,False,False,False,False,True,good samaritan society pembina village,294.0,long term care,Nursing and residential care facilities,Canadian Institute for Health Information,,,T0E0T0,evansburg,ab,,,,,0
76,Galahad,Galahad Care Centre,"1 Main St GALAHAD, Alberta T0B 1R0",Alberta Health Services,Alberta Health Services,False,False,False,False,True,galahad care centre,137.0,long term care,Nursing and residential care facilities,Canadian Institute for Health Information,,,T0B1R0,galahad,ab,,,,,0
77,Smoky Lake,George McDougall - Smoky Lake Healthcare Centre,"4212 55 Avenue SMOKY LAKE, Alberta T0A 3C0",Alberta Health Services,Alberta Health Services,False,False,False,True,False,george mcdougall - smoky lake healthcare centre,138.0,,Ambulatory health care services,Province of Alberta,4212,55 avenue,T0A3C0,smoky lake,ab,"4212 - 55 avenue, smoky lake, alberta, t0a 3c0",Smoky Lake,54.12128065,-112.46523559999999,0
78,Calgary,Glamorgan Care Centre,"105 Galbraith Drive SW CALGARY, Alberta T3E 4Z5",Travois Holdings Ltd.,Private,False,False,False,False,True,glamorgan care centre,305.0,long term care,Nursing and residential care facilities,Canadian Institute for Health Information,,,T3E4Z5,calgary,ab,,Calgary,,,0
79,Edmonton,Good Samaritan Dr. Gerald Zetter Care Centre,"9649 71 Avenue NW EDMONTON, Alberta T6E 5J2",The Good Samaritan Society (A Lutheran Social Service Organization),Voluntary,False,False,False,True,False,good samaritan society dr. gerald zetter care centre,292.0,chronic care,Nursing and residential care facilities,Public Health Agency of Canada,9649,71 ave,T6E5J2,edmonton,ab,9649 - 71st ave. edmonton ab t6e 5j2,Edmonton,53.5072809,-113.477577,0
80,Edmonton,Good Samaritan Society Millwoods Centre,"101 Youville Drive East EDMONTON, Alberta T6L 7A4",The Good Samaritan Society (A Lutheran Social Service Organization),Voluntary,False,False,False,False,True,good samaritan society millwoods centre,293.0,long term care,Nursing and residential care facilities,Canadian Institute for Health Information,,,T6L7A4,edmonton,ab,,Edmonton,,,0
81,Stony Plain,Good Samaritan Society Stony Plain Care Centre (LTC),"4800 55 Avenue STONY PLAIN, Alberta T7Z 1P9",The Good Samaritan Society (A Lutheran Social Service Organization),Voluntary,False,False,False,False,True,good samaritan society stony plain care centre,298.0,long term care,Nursing and residential care facilities,Canadian Institute for Health Information,,,T7Z1P9,stony plain,ab,,Stony Plain,,,0
82,Medicine Hat,Good Samaritan South Ridge Village (LTC),"550 Spruce Way SE MEDICINE HAT, Alberta T1B 4P1",The Good Samaritan Society (A Lutheran Social Service Organization),Voluntary,False,False,False,False,True,good samaritan society south ridge village,296.0,long term care,Nursing and residential care facilities,Canadian Institute for Health Information,,,T1B4P1,medicine hat,ab,,Medicine Hat,,,0
83,Grande Prairie,Grande Prairie Care Centre,"9705 94 Avenue GRANDE PRAIRIE, Alberta T8V3A2",Chantelle Management Ltd.,Private,False,False,False,False,True,grande prairie care centre,65.0,long term care,Nursing and residential care facilities,Canadian Institute for Health Information,,,T8V3A2,grande prairie,ab,,Grande Prairie,,,0
84,Grande Prairie,Grande Prairie Care Centre (LTC),"9705 94 Avenue GRANDE PRAIRIE, Alberta T8V3A2",Chantelle Management Ltd.,Private,False,False,False,False,True,grande prairie care centre,65.0,long term care,Nursing and residential care facilities,Canadian Institute for Health Information,,,T8V3A2,grande prairie,ab,,Grande Prairie,,,0
85,Grimshaw,Grimshaw/Berwyn And District Community Health Centre,"5621 Wilcox Road GRIMSHAW, Alberta T0H 1W0",Alberta Health Services,Alberta Health Services,False,False,False,True,False,grimshaw/berwyn and district community health centre,145.0,,Ambulatory health care services,Province of Alberta,5621,wilcox road,T0H1W0,grimshaw,ab,"5621 wilcox road, grimshaw, alberta, t0h 1w0",Grimshaw,56.190431999999994,-117.62721299999998,0
86,Hanna,Hanna Health Centre,"904 Centre Street N, Box 830 HANNA, Alberta T0J 1P0",Alberta Health Services,Alberta Health Services,False,False,False,False,True,hanna health centre,150.0,general,Hospitals,Public Health Agency of Canada,904,centre st n,T0J1P0,hanna,ab,904 centre st. n. hanna ab t0j 1p0,Hanna,51.6489192,-111.92820359999999,0
87,Edmonton,Hardisty Care Centre,"6420 101 Avenue EDMONTON, Alberta T6A 0H5",Hardisty Care Centre Ltd.,Private,False,False,False,False,True,hardisty care centre,204.0,long term care,Nursing and residential care facilities,Canadian Institute for Health Information,,,T6A0H5,edmonton,ab,,Edmonton,,,1
88,Hardisty,Hardisty Health Centre,"4531 47 Avenue, Box 269 HARDISTY, Alberta T0B1V0",Alberta Health Services,Alberta Health Services,False,False,False,True,False,hardisty health centre,151.0,general,Hospitals,Public Health Agency of Canada,4531,47 st,T0B1V0,hardisty,ab,4531 - 47 st. hardisty ab t0b 1v0,Hardisty,52.669316,111.307616,0
89,High River,High River General Hospital,"560 9 Avenue SW HIGH RIVER, Alberta T1V 1B3",Alberta Health Services,Alberta Health Services,False,False,False,True,False,high river general hospital,155.0,general,Hospitals,Public Health Agency of Canada,560,9 ave w,T1V1B3,high river,ab,560 - 9th ave. w. high river ab t1v 1b3,High River,50.5751035,-113.87994779999998,0
90,Hythe,Hythe Continuing Care Centre,"10307 100 Street PO Box 100 HYTHE, Alberta T0H 2C0",Alberta Health Services,Alberta Health Services,False,False,False,False,True,hythe continuing care centre,159.0,long term care,Nursing and residential care facilities,Canadian Institute for Health Information,,,T0H2C0,hythe,ab,,Hythe,,,0
91,Innisfail,Innisfail Health Centre,"5023 42 Street INNISFAIL, Alberta T4G 1A9",Alberta Health Services,Alberta Health Services,False,False,False,True,False,innisfail health centre,160.0,general,Hospitals,Public Health Agency of Canada,5023,42 st,T4G1A9,innisfail,ab,5023 - 42nd st. innisfail ab t4g 1a9,Innisfail,52.019015,-113.9514399,0
92,Calgary,Intercare Brentwood Care Centre,"2727 16 Avenue NW CALGARY, Alberta T2N 3Y6",Intercare Corporate Group Inc.,Private,False,False,False,False,True,brentwood care centre,161.0,long term care,Nursing and residential care facilities,Canadian Institute for Health Information,,,T2N3Y6,calgary,ab,,Calgary,,,1
93,Calgary,Intercare Chinook Care Centre,"1261 Glenmore Trail SW CALGARY, Alberta T2V 4Y8",Intercare Corporate Group Inc.,Private,False,False,False,False,True,chinook care centre,162.0,long term care,Nursing and residential care facilities,Canadian Institute for Health Information,,,T2V4Y8,calgary,ab,,Calgary,,,0
94,Calgary,Intercare Southwood Care Centre,"211 Heritage Drive, SE CALGARY, Alberta T2H 1M9",Intercare Corporate Group Inc.,Private,False,False,False,False,True,southwood care centre,163.0,long term care,Nursing and residential care facilities,Canadian Institute for Health Information,,,T2H1M9,calgary,ab,,Calgary,,,0
95,High Prairie,J.B. Wood Continuing Care Centre,"46206 53 Avenue HIGH PRAIRIE, Alberta T0G1E0",Alberta Health Services,Alberta Health Services,False,False,False,False,True,j.b. wood continuing care centre,,,,,,,,,,,,,,0
96,Edmonton,Jasper Place Continuing Care Centre,"8903 168 Street EDMONTON, Alberta T5R 2V6",Revera Long Term Care Inc,Private,False,False,False,False,True,jasper place continuing care centre,230.0,long term care,Nursing and residential care facilities,Canadian Institute for Health Information,,,T5R2V6,edmonton,ab,,Edmonton,,,0
97,Edmonton,Jubilee Lodge Nursing Home,"10333 76 Street EDMONTON, Alberta T6A 3A8",Jubilee Lodge Nursing Home Ltd. [Qualicare Corporation],Private,False,False,False,False,True,jubilee lodge nursing home,217.0,long term care,Nursing and residential care facilities,Canadian Institute for Health Information,,,T6A3A8,edmonton,ab,,Edmonton,,,0
98,Edmonton,Kensington Village Continuing Care Centre (LTC),"12603 135 Avenue EDMONTON, Alberta T5L 5B2",Shepherd's Care Foundation,Voluntary,False,False,False,False,True,kensington village continuing care centre,251.0,long term care,Nursing and residential care facilities,Canadian Institute for Health Information,,,T5L5B1,edmonton,ab,,Edmonton,,,1
99,Killam,Killam Health Care Centre,"5203 49 Avenue, Box 40 KILLAM, Alberta T0B 2L0",Covenant Health,Voluntary,False,False,False,True,False,killam health care centre,83.0,,Hospitals,Canadian Institute for Health Information,5203,49 avenue,T0B2L0,killam,ab,5203 49 avenue killam ab t0b 2l0 canada,Killam,52.788934999999995,-111.859551,0
100,Killam,Killam Health Care Centre,"5203 49 Avenue, Box 40 KILLAM, Alberta T0B 2L0",Covenant Health,Voluntary,False,False,False,True,False,killam health care centre,168.0,,Hospitals,Province of Alberta,5203,49 avenue,T0B2L0,killam,ab,"5203 ñ 49 avenue, box 40 killam, alberta, t0b 2l0",Killam,52.789351,-111.85897,0
101,La Crete,La Crete Continuing Care Centre,"10601 100 Avenue Box 295 LA CRETE, Alberta T0H 2H0",Alberta Health Services,Alberta Health Services,False,False,False,False,True,la crete continuing care centre,171.0,long term care,Nursing and residential care facilities,Canadian Institute for Health Information,,,T0H2H0,la crete,ab,,,,,1
102,Lacombe,Lacombe Hospital And Care Centre,"5430 47 Avenue LACOMBE, Alberta T4L 1G8",Alberta Health Services,Alberta Health Services,False,False,False,True,False,lacombe hospital and care centre,174.0,general,Hospitals,Public Health Agency of Canada,5430,47 ave,T4L1G8,lacombe,ab,5430 - 47th ave. lacombe ab t4l 1g8,Lacombe,52.460676600000006,-113.7411041,0
103,Lamont,Lamont Health Care Centre,"5216 53 Street Bag 10 LAMONT, Alberta T0B 2R0",The United Church Of Canada,Voluntary,False,False,False,True,True,lamont health care centre,175.0,general,Hospitals,Public Health Agency of Canada,5216,53 st,T0B2R0,lamont,ab,5216 - 53rd st. lamont ab t0b 2r0,Lamont,53.762612,-112.78858100000001,0
104,Lloydminster,Lloydminster Continuing Care Centre,"7402 – 29th Street, LLOYDMINSTER, Alberta, T9V 3N1",Prairie North Regional Health Authority,RHA,False,False,False,True,False,lloydminster continuing care centre,179.0,,Nursing and residential care facilities,Saskatchewan Health Authorities,7402,29 street,T9V3N1,lloydminster,ab,"7402 - 29 street lloydminster, ab t9v 3n1",Lloydminster (Part),53.274952,-110.017784,0
105,Camrose,Louise Jensen Care Centre,"5400 46 Avenue CAMROSE, Alberta T4V 4P8",The Bethany Group,Voluntary,False,False,False,True,False,louise jensen care centre,287.0,long term care,Nursing and residential care facilities,Canadian Institute for Health Information,,,T4V4P8,camrose,ab,,Camrose,,,0
106,Milk River,Milk River Health Centre,"517 Centre Avenue East MILK RIVER, Alberta T0K1M0",Alberta Health Services,Alberta Health Services,False,False,False,True,False,milk river health centre,190.0,general,Hospitals,Public Health Agency of Canada,517,centre ave e,T0K1M0,milk river,ab,517 centre ave. e. milk river ab t0k 1m0,Milk River,49.148255999999996,-112.0763544,0
107,Manning,Manning Community Health Centre,"600 2 Street NE MANNING, Alberta T0H 2M0",Alberta Health Services,Alberta Health Services,False,False,False,True,False,manning community health centre,182.0,general,Hospitals,Public Health Agency of Canada,600,2 st ne,T0H2M0,manning,ab,600 - 2nd st. n.e. manning ab t0h 2m0,Manning,56.927995900000006,-117.621417,0
108,Mannville,Mannville Care Centre,"5007 46 Street MANNVILLE, Alberta T0B 2W0",Alberta Health Services,Alberta Health Services,False,False,False,True,False,mannville care centre,183.0,"active acute hospital, long term care",Hospitals,Canadian Institute for Health Information,,,T0B2W0,mannville,ab,,Mannville,,,0
109,McLennan,Manoir Du Lac (LTC),"164 3 Avenue NW MCLENNAN, Alberta T0H 2L0",Integrated Life Care Inc.,Private,False,False,False,False,True,manoir du lac,184.0,long term care,Nursing and residential care facilities,Canadian Institute for Health Information,,,T0H2L0,mclennan,ab,,McLennan,,,0
110,Mundare,Mary Immaculate Hospital,"Polomark Drive and 53 Street Box 349 MUNDARE,  Alberta  T0B3H0",Convent Health,Voluntary,False,False,False,True,False,mary immaculate hospital,84.0,"active acute hospital, long term care",Hospitals,Canadian Institute for Health Information,,,T0B3H0,mundare,ab,,Mundare,,,0
111,Mayerthorpe,Mayerthorpe Healthcare Centre,"4417 45 Street MAYERTHORPE, Alberta T0E1N0",Alberta Health Services,Alberta Health Services,False,False,False,True,False,mayerthorpe healthcare centre,187.0,general,Hospitals,Public Health Agency of Canada,4706,54 st,T0E1N0,mayerthorpe,ab,4706 - 54th st. mayerthorpe ab t0e 1n0,Mayerthorpe,53.95219399999999,-115.1472169,0
112,Calgary,Mayfair Care Centre,"8240 Collicut Street SW CALGARY, Alberta T2V 2X1",Travois Holdings Ltd.,Private,False,False,False,False,True,mayfair care centre,306.0,long term care,Nursing and residential care facilities,Canadian Institute for Health Information,,,T2V2X1,calgary,ab,,Calgary,,,0
113,Calgary,McKenzie Towne Care Centre,"80 Promenade Way SE CALGARY,  Alberta  T2Z4G4",Revera Long Term Care Inc.,Private,False,False,False,False,True,mckenzie towne care centre,231.0,long term care,Nursing and residential care facilities,Canadian Institute for Health Information,,,T2Z4G4,calgary,ab,,Calgary,,,0
114,Edmonton,Miller Crossing Care Centre,"14251 50 Street NW EDMONTON, Alberta T5A 5J4",Revera Long Term Care Inc.,Private,False,False,False,False,True,miller crossing care centre,232.0,long term care,Nursing and residential care facilities,Canadian Institute for Health Information,,,T5A5J4,edmonton,ab,,Edmonton,,,0
115,Calgary,Millrise Place (LTC),"14911 5 Street SW CALGARY, Alberta T2Y 5B9",Millrise Seniors Village LP,Private,False,False,False,False,True,millrise place,228.0,long term care,Nursing and residential care facilities,Canadian Institute for Health Information,,,T2Y5B9,calgary,ab,,Calgary,,,0
116,Edmonton,Millwoods Shepherd’s Care Centre,"6620 28 Avenue EDMONTON, Alberta T6K 2R1",Shepherd's Care Foundation,Voluntary,False,False,False,True,True,millwoods shepherd's care centre,252.0,long term care,Nursing and residential care facilities,Canadian Institute for Health Information,,,T6K2R1,edmonton,ab,,Edmonton,,,0
117,Banff,Mineral Springs Hospital,"305 Lynx Street PO Box 1050 BANFF, Alberta T1L 1H7",Covenant Health,Voluntary,False,False,False,True,False,mineral springs hospital,85.0,,Hospitals,Canadian Institute for Health Information,305,lynx street,T1L1B8,banff,ab,305 lynx street banff ab t1l 1b8 canada,Banff,51.17925,-115.57486499999999,0
118,Banff,Mineral Springs Hospital,"305 Lynx Street PO Box 1050 BANFF, Alberta T1L 1H7",Covenant Health,Voluntary,False,False,False,True,False,mineral springs hospital,191.0,extended care,Hospitals,Public Health Agency of Canada,305,lynx st,T1L1H7,banff,ab,305 lynx st. banff ab t1l 1h7,Banff,51.1791402,-115.57467539999999,0
119,Calgary,Mount Royal Care Centre,"1813 9 Street SW CALGARY, Alberta T2T 3C2",Revera Long Term Care Inc.,Private,False,False,False,False,True,mount royal care centre,233.0,long term care,Nursing and residential care facilities,Canadian Institute for Health Information,,,T2T3C2,calgary,ab,,Calgary,,,0
120,Calgary,Newport Harbour Care Centre,"10 Country Village Cove NE CALGARY, Alberta T3K 6B4",Park Place Seniors Living Inc.,Private,False,False,False,False,True,newport harbour care centre,205.0,long term care,Nursing and residential care facilities,Canadian Institute for Health Information,,,T3K6B4,calgary,ab,,Calgary,,,0
121,Ponoka,Northcott Care Centre (Ponoka),"4209 48 Avenue PONOKA, Alberta T5J 1P4",Northcott Lodge Nursing Home Ltd.,Private,False,False,False,False,True,northcott care centre,218.0,long term care,Nursing and residential care facilities,Canadian Institute for Health Information,,,T4J1P4,ponoka,ab,,Ponoka,,,0
122,Fort McMurray,Northern Lights Regional Health Centre,"7 Hospital Street FORT MCMURRAY, Alberta T9H 1P2",Alberta Health Services,Alberta Health Services,False,False,False,True,False,northern lights regional health centre,195.0,general,Hospitals,Public Health Agency of Canada,7,hospital st,T9H1P2,fort mcmurray,ab,7 hospital st. fort mcmurray ab t9h 1p2,Wood Buffalo,56.71635229999999,-111.3622389,0
123,High Level,Northwest Health Centre,"11202 100 Avenue HIGH LEVEL, Alberta T0H 1Z0",Alberta Health Services,Alberta Health Services,False,False,False,True,False,northwest health centre,196.0,general,Hospitals,Public Health Agency of Canada,11202,100 ave,T0H1Z0,high level,ab,11202-100 ave. high level ab t0h 1z0,High Level,58.513525699999995,-117.16215290000001,0
124,Black Diamond,Oilfields General Hospital,"717 Government Road BLACK DIAMOND, Alberta T0L 0H0",Alberta Health Services,Alberta Health Services,False,False,False,True,False,oilfields general hospital,197.0,general,Hospitals,Public Health Agency of Canada,717,government rd,T0L0H0,black diamond,ab,717 government rd. black diamond ab t0l 0h0,Black Diamond,50.678014399999995,-114.23441270000001,0
125,Olds,Olds Hospital And Care Centre,"3901 57 Avenue OLDS, Alberta T4H 1T4",Alberta Health Services,Alberta Health Services,False,False,False,True,False,olds hospital and care centre,199.0,general,Hospitals,Public Health Agency of Canada,3901,57 ave,T4H1T4,olds,ab,3901 - 57th ave. olds ab t4h 1t4,Olds,51.8013128,-114.11783490000002,0
126,Castor,Our Lady Of The Rosary Hospital,"5402 47 Street CASTOR, Alberta T0C 0X0",Covenant Health,Voluntary,False,False,False,True,False,our lady of the rosary hospital,87.0,general,Hospitals,Public Health Agency of Canada,5402,47 st,T0C0X0,castor,ab,5402 - 47 st. castor ab t0c 0x0,Castor,52.2234403,-111.9068616,0
127,Castor,Our Lady Of The Rosary Hospital,"5402 47 Street CASTOR, Alberta T0C 0X0",Covenant Health,Voluntary,False,False,False,True,False,our lady of the rosary hospital,200.0,,Hospitals,Province of Alberta,5402,47 street,T0C0X0,castor,ab,"5402 ñ 47 street, castor, alberta, t0c 0x0",Castor,52.2233878,-111.9068537,0
128,Peace River,Peace River Community Health Centre,"10101 68 Street PEACE RIVER, Alberta T8S 1T6",Alberta Health Services,Alberta Health Services,False,False,False,True,False,peace river community health centre,208.0,general,Hospitals,Public Health Agency of Canada,10101,68 st,T8S1T6,peace river,ab,10101 - 68 st. peace river ab t8s 1t6,Peace River,56.231053,117.35444199999999,0
129,Pincher Creek,Pincher Creek Health Centre,"1222 Mill Ave PINCHER CREEK, Alberta T0K 1W0",Alberta Health Services,Alberta Health Services,False,False,False,True,False,pincher creek health centre,210.0,general,Hospitals,Public Health Agency of Canada,1222,mill ave,T0K1W0,pincher creek,ab,1222 mill ave. pincher creek ab t0k 1w0,Pincher Creek,49.493452000000005,-113.94693500000001,0
130,Grande Prairie,Points West Living Grande Prairie (LTC),"11460 104 Avenue GRANDE PRAIRIE, Alberta T8V 3G9",Points West Living Grande Prairie Inc. [Connecting Care],Private,False,False,False,False,True,points west living grande prairie,213.0,long term care,Nursing and residential care facilities,Canadian Institute for Health Information,,,T8V3G9,grande prairie,ab,,Grande Prairie,,,0
131,Ponoka,Ponoka Hospital And Care Centre,"5800 57 Avenue PONOKA, Alberta T4J 1P1",Alberta Health Services,Alberta Health Services,False,False,False,True,False,ponoka hospital and care centre,214.0,general,Hospitals,Public Health Agency of Canada,5800,57 ave,T4J1P1,ponoka,ab,5800 - 57th ave. ponoka ab t4j 1p1,Ponoka,52.684723999999996,-113.58951100000002,0
132,Calgary,Providence Care Centre (LTC),"149 Providence Boulevard SE CALGARY, Alberta, T2X 0X2",The Father Albert Lacombe Home,Voluntary,False,False,False,False,True,providence care centre,129.0,long term care,Nursing and residential care facilities,Canadian Institute for Health Information,,,T2X0X2,calgary,ab,,Calgary,,,0
133,Provost,Provost Health Centre,"5002 54 Avenue Box 270 PROVOST, Alberta T0B 3S0",Alberta Health Services,Alberta Health Services,False,False,False,True,False,provost health centre,215.0,general,Hospitals,Public Health Agency of Canada,5002,54 ave,T0B3S0,provost,ab,5002 - 54th ave. provost ab t0b 3s0,Provost,52.357969,110.26483999999999,0
134,Camrose,Rosehaven Care Centre,"4612 53 Street CAMROSE,  Alberta  T4V1Y6",The Bethany Group,Voluntary,False,False,False,True,False,rosehaven care centre,288.0,long term care,Nursing and residential care facilities,Canadian Institute for Health Information,,,T4V1Y6,camrose,ab,,Camrose,,,0
135,Radway,Radway Continuing Care Centre,"Hwy 28, Range Road 205 RADWAY, Alberta T0A 2V0",Alberta Health Services,Alberta Health Services,False,False,False,True,False,radway continuing care centre,221.0,long term care,Nursing and residential care facilities,Canadian Institute for Health Information,,,T0A2V0,radway,ab,,,,,0
136,Raymond,Raymond Health Centre,"150 N 4 Street East RAYMOND, Alberta T0K 2S0",Alberta Health Services,Alberta Health Services,False,False,False,True,False,raymond health centre,223.0,general,Hospitals,Public Health Agency of Canada,150,n 4 st e,T0K2S0,raymond,ab,150 n. - 4th st. e. raymond ab t0k 2s0,Raymond,49.4647002,-112.65058400000001,0
137,Redwater,Redwater Health Centre,"4812 58 Street REDWATER, Alberta T0A 2W0",Alberta Health Services,Alberta Health Services,False,False,False,True,False,redwater health centre,225.0,general,Hospitals,Public Health Agency of Canada,4812,58 st,T0A2W0,redwater,ab,4812 - 58 st. redwater ab t0a 2w0,Redwater,53.9495991,-113.12558130000001,0
138,Rimbey,Rimbey Hospital And Care Centre,"5228 50 Avenue RIMBEY, Alberta T0C 2J0",Alberta Health Services,Alberta Health Services,False,False,False,True,False,rimbey hospital and care centre,237.0,general,Hospitals,Public Health Agency of Canada,5228,50 ave,T0C2J0,rimbey,ab,5228 - 50th ave. rimbey ab t0c 2j0,Rimbey,52.6396975,-114.2459585,0
139,Fort Saskatchewan,Rivercrest Care Centre,"10104 101 Avenue FORT SASKATCHEWAN, Alberta T8L 2A5",Rivercrest Lodge Nursing Home Ltd. [Qualicare Corporation],Private,False,False,False,False,True,rivercrest care centre,219.0,long term care,Nursing and residential care facilities,Canadian Institute for Health Information,,,T8L2A5,fort saskatchewan,ab,,Fort Saskatchewan,,,0
140,Medicine Hat,Riverview Care Centre,"603 Prospect Drive SW MEDICINE HAT, Alberta T1A 4C2",Revera Long Term Care Inc.,Private,False,False,False,False,True,riverview care centre,234.0,long term care,Nursing and residential care facilities,Canadian Institute for Health Information,,,T1A4C2,medicine hat,ab,,Medicine Hat,,,0
141,Strathmore,Sagewood Seniors Community (LTC),"140 Cambridge Glen Drive STRATHMORE, Alberta T1P1N3",AgeCare Ltd.,Private,False,False,False,False,True,sagewood seniors community,4.0,long term care,Nursing and residential care facilities,Canadian Institute for Health Information,,,T1P0E2,strathmore,ab,,Strathmore,,,0
142,Leduc,Salem Manor Nursing Home,"4419 46 Street LEDUC, Alberta T9E 6L2",Salem Manor Society,Voluntary,False,False,False,False,True,salem manor nursing home,246.0,long term care,Nursing and residential care facilities,Canadian Institute for Health Information,,,T9E6L2,leduc,ab,,Leduc,,,0
143,Edmonton,Edmonton Chinatown Care Centre (LTC),"9539 102A Avenue EDMONTON, Alberta T5H 0G2",Hong Lok Management Services Ltd.,Voluntary,False,False,False,False,True,edmonton chinatown care centre,110.0,long term care,Nursing and residential care facilities,Canadian Institute for Health Information,,,T5H0G2,edmonton,ab,,Edmonton,,,1
144,Calgary,Seton Seniors Community (LTC),"4963 Front Street SE CALGARY, Alberta, T3M 2M3",Age Care Health Services Inc.,Private,False,False,False,False,True,seton seniors community,5.0,long term care,Nursing and residential care facilities,Canadian Institute for Health Information,,,T3M2M3,calgary,ab,,Calgary,,,0
145,Sherwood Park,Sherwood Care,"2020 Brentwood Boulevard N SHERWOOD PARK, Alberta T8A 0X1",Sherwood Care [Adventists Health Systems Alberta],Voluntary,False,False,False,False,True,sherwood care,253.0,long term care,Nursing and residential care facilities,Canadian Institute for Health Information,,,T8A0X1,sherwood park,ab,,,,,0
146,Slave Lake,Slave Lake Healthcare Centre,"309 6 Street NE SLAVE LAKE, Alberta T0G 2A2",Alberta Health Services,Alberta Health Services,False,False,False,True,False,slave lake healthcare centre,255.0,general,Hospitals,Public Health Agency of Canada,309,6 st ne,T0G2A2,slave lake,ab,309 - 6th st. n.e. slave lake ab t0g 2a2,Slave Lake,55.284356,-114.76073899999999,0
147,Smoky Lake,Smoky Lake Continuing Care Centre,"4607 52 Avenue SMOKY LAKE, Alberta T0A 3C0",Alberta Health Services,Alberta Health Services,False,False,False,False,True,smoky lake continuing care centre,257.0,long term care,Nursing and residential care facilities,Canadian Institute for Health Information,,,T0A3C0,smoky lake,ab,,Smoky Lake,,,0
148,Edmonton,South Terrace Continuing Care Centre,"5905 112 Street EDMONTON, Alberta T6H 3J4",Revera Long Term Care Inc.,Private,False,False,False,False,True,south terrace continuing care centre,235.0,long term care,Nursing and residential care facilities,Canadian Institute for Health Information,,,T6H3J4,edmonton,ab,,Edmonton,,,0
149,Edmonton,St. Joseph's Auxiliary Hospital,"10707 29 Avenue EDMONTON, Alberta T6J 6W1",Covenant Health,Voluntary,False,False,False,True,False,st. joseph's auxiliary hospital,89.0,"active acute hospital, long term care",Hospitals,Canadian Institute for Health Information,,,T6J6W1,edmonton,ab,,Edmonton,,,0
150,Trochu,St. Mary's Health Care Centre,"451 Dechauney Avenue TROCHU, Alberta T0M 2C0",Covenant Health,Voluntary,False,False,False,True,False,st. mary's health care centre,91.0,"active acute hospital, long term care",Hospitals,Canadian Institute for Health Information,,,T0M2C0,trochu,ab,,Trochu,,,0
151,Lethbridge,St. Michael's Health Centre,"1400 9 Avenue South LETHBRIDGE, Alberta T1J 4V5",Covenant Health,Voluntary,False,True,True,True,False,st. michael's health centre,92.0,"active acute hospital, long term care",Hospitals,Canadian Institute for Health Information,,,T1J4V5,lethbridge,ab,,Lethbridge,,,0
152,Edmonton,St. Michael's Long Term Care Centre,"7404 139 Avenue EDMONTON, Alberta T5C3H7",St. Michael's Health Group,Voluntary,False,False,False,True,True,st. michael's long term care centre,269.0,long term care,Nursing and residential care facilities,Canadian Institute for Health Information,,,T5C3H7,edmonton,ab,,Edmonton,,,0
153,Fort Vermilion,St. Theresa General Hospital,"4506 46 Avenue FORT VERMILION, Alberta T0H 1N0",Alberta Health Services,Alberta Health Services,False,False,False,True,False,st. theresa general hospital,271.0,general,Hospitals,Public Health Agency of Canada,4506,46 ave,T0H1N0,fort vermilion,ab,4506 - 46 ave. fort vermilion ab t0h 1n0,Mackenzie County,58.3858843,-116.01220670000001,0
154,St Paul,St. Therese - St. Paul Healthcare Centre,"4713 48 Avenue ST. PAUL, Alberta T0A 3A3",Alberta Health Services,Alberta Health Services,False,False,False,True,False,st. therese - st. paul healthcare centre,272.0,,Hospitals,Canadian Institute for Health Information,4713,48 avenue,T0A3A3,st paul,ab,4713 - 48th avenue st. paul ab t0a3a3 canada,St. Paul,53.989267000000005,-111.29046299999999,0
155,Stettler,Stettler Hospital And Care Centre,"5912 47 Avenue STETTLER, Alberta T0C 2L0",Alberta Health Services,Alberta Health Services,False,False,False,True,False,stettler hospital and care centre,273.0,general,Hospitals,Public Health Agency of Canada,5912,47 ave,T0C2L0,stettler,ab,5912 - 47 ave. stettler ab t0c 2l0,Stettler,52.323974,-112.72346,0
156,Sundre,Sundre Hospital And Care Centre,"709 1 Street NE SUNDRE, Alberta T0M 1X0",Alberta Health Services,Alberta Health Services,False,False,False,True,False,sundre hospital and care centre,279.0,general,Hospitals,Public Health Agency of Canada,709,1 st ne,T0M1X0,sundre,ab,709 - 1st st. n.e. sundre ab t0m 1x0,Sundre,51.807789,-114.63548600000001,0
157,Medicine Hat,Sunnyside Care Centre [South Country Village Campus]               (LTC),"1720 Bell Street SW MEDICINE HAT, Alberta T1A 5G1",Sunnyside Nursing Home Society,Voluntary,False,False,False,False,True,sunnyside care centre,280.0,long term care,Nursing and residential care facilities,Canadian Institute for Health Information,,,T1A5G1,medicine hat,ab,,Medicine Hat,,,0
158,Drayton Valley,Sunrise Village Drayton Valley [Sunrise Village (Drayton) Holdings Ltd.],"3902 47 Street DRAYTON VALLEY, Alberta T7AA02",Seasons Retirement Communities (Drayton Valley) GP Inc.,Private,True,False,False,True,False,sunrise village drayton valley,,,,,,,,,,,,,,0
159,Taber,Taber Health Centre,"4326 50 Avenue TABER, Alberta T1G 1N9",Alberta Health Services,Alberta Health Services,False,False,False,True,False,taber health centre,285.0,general,Hospitals,Public Health Agency of Canada,4326,50 ave,T1G1N9,taber,ab,4326 - 50th ave. taber ab t1g 1n9,Taber,49.7850125,-112.1651375,0
160,Edmonton,The Dianne And Irving Kipnes Centre For Veterans,"4470 McCrae Avenue EDMONTON, Alberta T5E 6M8",Capital Care Group Inc.,Alberta Health Services,False,False,False,True,False,the dianne and irving kipnes centre for veterans,50.0,long term care,Nursing and residential care facilities,Canadian Institute for Health Information,,,T5E6M8,edmonton,ab,,Edmonton,,,0
161,Medicine Hat,The Valleyview (LTC),"65 Valleyview Drive SW MEDICINE HAT, Alberta T1A 7K5",Age Care Investments Ltd.,Private,False,False,False,False,True,valleyview,7.0,long term care,Nursing and residential care facilities,Canadian Institute for Health Information,,,T1A7K5,medicine hat,ab,,Medicine Hat,,,0
162,Three Hills,Three Hills Health Centre,"1504 2 Street North THREE HILLS, Alberta T0M 2A0",Alberta Health Services,Alberta Health Services,False,False,False,True,False,three hills health centre,299.0,general,Hospitals,Public Health Agency of Canada,1504,2 st n,T0M2A0,three hills,ab,1504 - 2nd st. n. three hills ab t0m 2a0,Three Hills,51.7078018,-113.25108590000002,0
163,Tofield,Tofield Health Centre,"5543 44 Street Box 1200 TOFIELD, Alberta T0B 4J0",Alberta Health Services,Alberta Health Services,False,False,False,True,True,tofield health centre,300.0,general,Hospitals,Public Health Agency of Canada,5543,44 st,T0B4J0,tofield,ab,5543 - 44 st. tofield ab t0b 4j0,Tofield,53.372657200000006,-112.6510992,0
164,Edmonton,Touchmark At Wedgewood,"18333 Lessard Road EDMONTON, Alberta T6M 2Y5",Touchmark at Wedgewood (Edmonton) Inc.,Private,False,False,False,False,True,touchmark at wedgewood,304.0,long term care,Nursing and residential care facilities,Canadian Institute for Health Information,,,T6M2Y5,edmonton,ab,,Edmonton,,,0
165,Two Hills,Two Hills Health Centre,"4401 53 Avenue TWO HILLS, Alberta T0B 4K0",Alberta Health Services,Alberta Health Services,False,False,False,True,True,two hills health centre,307.0,general,Hospitals,Public Health Agency of Canada,4401,53 ave,T0B4K0,two hills,ab,4401 - 53rd ave. two hills ab t0b 4k0,Two Hills,53.7132007,-111.731815,0
166,Valleyview,Valleyview Health Centre,"4802 Highway Street East VALLEYVIEW, Alberta T0H3N0",Alberta Health Alberta Health Services Services,Alberta Health Alberta Health Services Services,False,False,False,True,False,valleyview health centre,310.0,general,Hospitals,Public Health Agency of Canada,4802,highway st e,T0H3N0,valleyview,ab,4802 highway st. e. valleyview ab t0h 3n0,Valleyview,55.066646999999996,-117.273404,0
167,Vegreville,Vegreville Care Centre,"4525 50 Street VEGREVILLE, Alberta T9A0A1",Alberta Health Services,Alberta Health Services,False,False,False,True,False,vegreville care centre,311.0,long term care,Nursing and residential care facilities,Canadian Institute for Health Information,,,T9C0A1,vegreville,ab,,Vegreville,,,0
168,Edmonton,Venta Care Centre,"13525 102 Street EDMONTON, Alberta T5E 4K3",Venta Nursing Home Ltd.,Private,False,False,False,False,True,venta care centre,312.0,long term care,Nursing and residential care facilities,Canadian Institute for Health Information,,,T5E4K3,edmonton,ab,,Edmonton,,,0
169,Vermilion,Vermilion Health Centre,"5720 50 Avenue VERMILION, Alberta T9X 1K7",Alberta Health Services,Alberta Health Services,False,False,False,False,True,vermilion health centre,313.0,general,Hospitals,Public Health Agency of Canada,5720,50 ave,T9X1K7,vermilion,ab,5720 - 50th ave. vermilion ab t9x 1k7,Vermilion,53.3547731,-110.87307890000001,0
170,Vulcan,Vulcan Community Health Centre,"610 Elizabeth Street S VULCAN, Alberta T0L 2B0",Alberta Health Services,Alberta Health Services,False,False,False,True,False,vulcan community health centre,316.0,general,Hospitals,Public Health Agency of Canada,610,elizabeth st s,T0L2B0,vulcan,ab,610 elizabeth st. s. vulcan ab t0l 2b0,Vulcan,50.396101200000004,-113.2588,0
171,Wainwright,Wainwright Health Centre,"530 6 Avenue WAINWRIGHT, Alberta T9W 1R6",Alberta Health Services,Alberta Health Services,False,False,False,True,False,wainwright health centre,318.0,general,Hospitals,Public Health Agency of Canada,530,6 ave,T9W1R6,wainwright,ab,530 - 6th ave. wainwright ab t9w 1r6,Wainwright,52.840949,-110.865862,0
172,Calgary,Walden Heights Seniors Community (LTC),"250 Walden Drive SE CALGARY, Alberta T2X 0V1",Age Care Health Services Inc.,Private,False,False,False,False,True,walden heights seniors community,8.0,long term care,Nursing and residential care facilities,Canadian Institute for Health Information,,,T2X0V1,calgary,ab,,Calgary,,,0
173,Calgary,Wentworth Manor – The Court (LTC),"5717 14 Avenue SW CALGARY, Alberta T3H3M2",The Brenda Strafford Foundation,Voluntary,False,False,False,False,True,wentworth manor - the court,291.0,long term care,Nursing and residential care facilities,Canadian Institute for Health Information,,,T3H3M2,calgary,ab,,Calgary,,,0
174,Westlock,Westlock Healthcare Centre [Westlock Continuing Care Centre],"10220 93 Street WESTLOCK, Alberta T7P2G4",Alberta Health Services,Alberta Health Services,False,False,False,True,False,westlock healthcare centre,320.0,general,Hospitals,Public Health Agency of Canada,10220,93 st,T7P2G4,westlock,ab,10220 - 93rd st. westlock ab t7p 2g4,Westlock,54.146530000000006,-113.85325900000001,0
175,Linden,Westview Care Community,"700 Nursing Home Road LINDEN, Alberta T0M 1J0",Church Of God In Christ Mennonite,Voluntary,False,False,False,False,True,westview care community,321.0,long term care,Nursing and residential care facilities,Canadian Institute for Health Information,,,T0M1J0,linden,ab,,Linden,,,0
176,Stony Plain,Westview Health Centre - Stony Plain,"4405 Southpark Drive STONY PLAIN, Alberta T7Z2M7",Alberta Health Services,Alberta Health Services,False,False,False,True,False,westview health centre - stony plain,323.0,,Ambulatory health care services,Province of Alberta,4405,south park drive,T7Z2M7,stony plain,ab,"4405 ñ south park drive, stony plain, alberta, t7z 2m7",Stony Plain,53.53827,-113.97879099999999,0
177,Wetaskiwin,Wetaskiwin Hospital and Care Centre,"6910 47 Street WETASKIWIN, Alberta T9A3N3",Alberta Health Services,Alberta Health Services,False,False,False,False,True,wetaskiwin hospital and care centre,324.0,general,Hospitals,Public Health Agency of Canada,6910,47 st,T9A3N3,wetaskiwin,ab,6910 - 47th st. wetaskiwin ab t9a 3n3,Wetaskiwin,52.986764,-113.367947,0
178,Lac La Biche,William J. Cadzow - Lac La Biche Healthcare Centre,"9110 93 Street LAC LA BICHE, Alberta T0A 2C0",Alberta Health Services,Alberta Health Services,False,False,False,True,False,william j. cadzow - lac la biche healthcare centre,326.0,,Ambulatory health care services,Province of Alberta,9110,93 street,T0A2C0,lac la biche,ab,"9110 - 93 street, lac la biche, alberta, t0a 2c0",Lac la Biche County,54.7643782,-111.9635723,0
179,Claresholm,Willow Creek Continuing Care Centre,"4221 8 Street West CLARESHOLM, Alberta T0L 0T0",Alberta Health Services,Alberta Health Services,False,False,False,True,True,willow creek continuing care centre,328.0,long term care,Nursing and residential care facilities,Canadian Institute for Health Information,,,T0L0T0,claresholm,ab,,Claresholm,,,0
180,Calgary,Wing Kei Care Centre,"1212 Centre Street NE CALGARY, Alberta T2E 2R4",Chinese Christian Wing Kei Nursing Home Association,Voluntary,False,False,False,False,True,wing kei care centre,329.0,long term care,Nursing and residential care facilities,Canadian Institute for Health Information,,,T2E2R4,calgary,ab,,Calgary,,,0
181,St. Albert,Youville Auxiliary Hospital (Grey Nuns) Of St. Albert,"9 St. Vital Avenue ST. ALBERT, Alberta T8N 1K1",Covenant Health,Voluntary,False,False,False,True,False,youville auxiliary hospital (grey nuns) of st. albert,94.0,long term care,Nursing and residential care facilities,Canadian Institute for Health Information,,,T8N1K1,st albert,ab,,St. Albert,,,0
